name,lat,lon,住所,URL,備考
沖縄工業高等専門学校,26.52686485891403,128.03037129584783,辺野古905,このように任意の項目を追加できます
新都心公園,26.22895485,127.6957971,沖縄県那覇市おもろまち3-2-1
安謝小学校（運動場）,26.237373,127.689314,沖縄県那覇市安謝2-15-28
さつき小学校（運動場）,26.191453,127.665043,沖縄県那覇市宇栄原1-12-1
小禄中学校（運動場）,26.189014,127.667465,沖縄県那覇市宇栄原2-23-1
奥武山公園,26.204514,127.675171,沖縄県那覇市奥武山
与儀公園,26.20855994,127.6926224,沖縄県那覇市寄宮1-1
真和志小学校（運動場）,26.206587,127.699934,沖縄県那覇市寄宮3-1-1
上山中学校（運動場）,26.21544,127.673809,沖縄県那覇市久米1-3-1
天妃小学校（運動場）,26.214572,127.674298,沖縄県那覇市久米1-3-2
久茂地公園,26.218925,127.682258,沖縄県那覇市久茂地2-16-7
鏡原中学校（運動場）,26.196826,127.678662,沖縄県那覇市鏡原町36-1
がじゃんびら公園,26.204679,127.665974,沖縄県那覇市金城1-4-1
小禄金城公園,26.19921678,127.6657393,沖縄県那覇市金城3-2-1
金城小学校（運動場）,26.198186,127.662624,沖縄県那覇市金城4-3-1
金城中学校（運動場）,26.199127,127.663644,沖縄県那覇市金城4-4-1
松島中学校（運動場）,26.225758,127.70833,沖縄県那覇市古島2-11-2
松島小学校（運動場）,26.227943,127.708093,沖縄県那覇市古島2-30-12
漫湖公園,26.197936,127.685857,沖縄県那覇市古波蔵
古蔵小学校（運動場）,26.199909,127.691914,沖縄県那覇市古波蔵1-33-1
古蔵中学校（運動場）,26.197237,127.68907,沖縄県那覇市古波蔵4-8-1
新港ふ頭東緑地,26.23121,127.681239,沖縄県那覇市港町1-3-6
新港ふ頭中央緑地,26.241628,127.678573,沖縄県那覇市港町2-10-1
新港ふ頭北緑地,26.244683,127.678283,沖縄県那覇市港町3-3-1
高良小学校（運動場）,26.183051,127.663857,沖縄県那覇市高良2-12-1
高前原公園,26.18551853,127.6642216,沖縄県那覇市高良2-5
垣花小学校（運動場）,26.20217,127.670365,沖縄県那覇市山下町17-1
国場前原公園（こくばめーばる公園）,26.194229,127.702171,沖縄県那覇市字国場251-5
識名公園,26.204976,127.715044,沖縄県那覇市字識名1226
宇栄原小学校（運動場）,26.186404,127.674681,沖縄県那覇市字小禄1066
森口公園,26.198235,127.673401,沖縄県那覇市字小禄1127
小禄小学校（運動場）,26.19819,127.67234,沖縄県那覇市字小禄1150
真嘉比小学校（運動場）,26.222837,127.700371,沖縄県那覇市字真嘉比1-17-1
真地小学校（運動場）,26.199573,127.718363,沖縄県那覇市字真地313
大道小学校（運動場）,26.216135,127.698793,沖縄県那覇市字大道146-1
真和志中学校（運動場）,26.214762,127.698094,沖縄県那覇市字大道158
仲井真小学校（運動場）,26.196849,127.707436,沖縄県那覇市字仲井真173
仲井真中学校（運動場）,26.194803,127.708435,沖縄県那覇市字仲井真189
大石公園,26.207899,127.705775,沖縄県那覇市識名1-675-1
識名小学校（運動場）,26.207923,127.707903,沖縄県那覇市識名2-2-1
旭ヶ丘公園,26.220089,127.672264,沖縄県那覇市若狭1-24-1
若狭海浜公園,26.22213,127.672913,沖縄県那覇市若狭1-26
若狭小学校（運動場）,26.222303,127.676097,沖縄県那覇市若狭2-16-1
若狭公園,26.223693,127.677279,沖縄県那覇市若狭3-19
首里崎山公園,26.215244,127.719627,沖縄県那覇市首里崎山町1-39
城南小学校（運動場）,26.2134,127.722692,沖縄県那覇市首里崎山町4-35-2
城西小学校（運動場）,26.219154,127.717072,沖縄県那覇市首里真和志町1-5
城北中学校（運動場）,26.227824,127.727118,沖縄県那覇市首里石嶺町1-112
城北小学校（運動場）,26.227467,127.721472,沖縄県那覇市首里石嶺町1-162
石嶺中学校（運動場）,26.226913,127.73124,沖縄県那覇市首里石嶺町2-109
城東小学校（運動場）,26.223884,127.732588,沖縄県那覇市首里石嶺町2-74-1
石嶺小学校（運動場）,26.230825,127.731517,沖縄県那覇市首里石嶺町4-360-8
虎瀬公園,26.22306613,127.722505,沖縄県那覇市首里赤平町2-68
大名小学校（運動場）,26.232401,127.711995,沖縄県那覇市首里大名町1-49
弁ヶ岳公園,26.217717,127.731388,沖縄県那覇市首里鳥堀町4-121
首里中学校（運動場）,26.219613,127.723837,沖縄県那覇市首里汀良町2-55
末吉公園,26.22848118,127.7156507,沖縄県那覇市首里末吉町1-3-1
曙小学校（運動場）,26.240804,127.682718,沖縄県那覇市曙2-18-1
小禄南小学校（運動場）,26.190186,127.67247,沖縄県那覇市小禄4-14-1
松山公園,26.2183698,127.6772306,沖縄県那覇市松山1-17
那覇中学校（運動場）,26.221544,127.679226,沖縄県那覇市松山2-24-1
松川小学校（運動場）,26.214157,127.70291,沖縄県那覇市松川1-7-1
真嘉比東公園（まかんじゃーら公園）,26.223169,127.706419,沖縄県那覇市松島1-5
松尾公園,26.21232498,127.6862263,沖縄県那覇市松尾2-59
真嘉比南公園,26.22293724,127.7019338,沖縄県那覇市真嘉比1-19
真嘉比西公園,26.22617355,127.7012143,沖縄県那覇市真嘉比2-7
真嘉比中央公園,26.22371878,127.7042533,沖縄県那覇市真嘉比3-16
開南小学校（運動場）,26.211574,127.679865,沖縄県那覇市泉崎1-1-6
前島東公園,26.221637,127.686944,沖縄県那覇市前島1-15-5
那覇小学校（運動場）,26.220575,127.685947,沖縄県那覇市前島1-7-1
泊ふ頭泊緑地,26.224834,127.68443,沖縄県那覇市前島3-25
城岳公園,26.209752,127.684795,沖縄県那覇市楚辺1-168
城岳小学校（運動場）,26.205961,127.685841,沖縄県那覇市楚辺2-1-1
寄宮中学校（運動場）,26.204308,127.700454,沖縄県那覇市長田1-13-65
上間小学校（運動場）,26.201516,127.702856,沖縄県那覇市長田2-11-60
天久ちゅらまち公園,26.23179808,127.6885366,沖縄県那覇市天久1-3
天久小学校（運動場）,26.231199,127.690509,沖縄県那覇市天久1-4-1
田原公園,26.19617175,127.6692197,沖縄県那覇市田原3-4-1
泊小学校（運動場）,26.22464,127.688484,沖縄県那覇市泊2-23-9
新屋敷公園,26.226846,127.684216,沖縄県那覇市泊3-12-10
松城中学校（運動場）,26.213684,127.712484,沖縄県那覇市繁多川3-15-1
繁多川公園,26.212735,127.714479,沖縄県那覇市繁多川4-548
石田中学校（運動場）,26.20966,127.710469,沖縄県那覇市繁多川5-17-1
中央公園,26.20680625,127.6869979,沖縄県那覇市樋川1-15
神原小学校（運動場）,26.210481,127.691576,沖縄県那覇市樋川2-7-1
神原中学校（運動場）,26.209776,127.690691,沖縄県那覇市樋川2-8-1
緑ヶ丘公園,26.2171919,127.6850309,沖縄県那覇市牧志1-4
希望ヶ丘公園,26.215223,127.689835,沖縄県那覇市牧志3-116-5
壺屋小学校（運動場）,26.216773,127.692206,沖縄県那覇市牧志3-14-12
銘苅小学校（運動場）,26.231097,127.698868,沖縄県那覇市銘苅2-3-20
安岡中学校（運動場）,26.235604,127.698517,沖縄県那覇市銘苅3-10-26
与儀小学校（運動場）,26.206047,127.690921,沖縄県那覇市与儀1-1-1
まつぼっくり公園,26.26862551,127.7698221,沖縄県宜野湾市愛知2-5
伊佐第二児童公園,26.28701169,127.7533856,沖縄県宜野湾市伊佐2-21-2
伊佐児童公園,26.29366007,127.7557585,沖縄県宜野湾市伊佐3-12-2
ガジュマル児童公園,26.26925603,127.7285795,沖縄県宜野湾市宇地泊471
ゆうひ児童公園,26.27083384,127.7263854,沖縄県宜野湾市宇地泊598
かたばる公園,26.27416802,127.730903,沖縄県宜野湾市宇地泊751-11
嘉数高台公園,26.25859803,127.7359195,沖縄県宜野湾市嘉数1-5
青空公園,26.26194633,127.7300687,沖縄県宜野湾市嘉数4-617-2
比屋良川公園,26.25866538,127.7402664,沖縄県宜野湾市嘉数4-824-1
がねこ児童公園,26.25431293,127.7508677,沖縄県宜野湾市我如古4-15-40
ちゅんなー公園,26.28679538,127.7637048,沖縄県宜野湾市喜友名1-29-1
いこいの市民パーク,26.26721526,127.7631266,沖縄県宜野湾市宜野湾1-14-24
しまし公園,26.25623904,127.7610656,沖縄県宜野湾市志真志3-16-3
うえはら児童公園,26.27749267,127.7748953,沖縄県宜野湾市上原1-22-8
ながつき児童公園,26.28685565,127.7748086,沖縄県宜野湾市新城1-1-16
あらしろ児童公園,26.28542567,127.7719163,沖縄県宜野湾市新城2-5-1
まえはら児童公園,26.25724578,127.7463955,沖縄県宜野湾市真栄原1-15-18
ぐんばる公園,26.26341037,127.743106,沖縄県宜野湾市真栄原3-11-1
おおぶき公園,26.26364529,127.7453644,沖縄県宜野湾市真栄原3-24-8
佐真下公園,26.26396821,127.7479013,沖縄県宜野湾市真栄原3-38
森川公園,26.2697341,127.7419627,沖縄県宜野湾市真志喜1-24-1
わかたけ児童公園,26.27482017,127.7380932,沖縄県宜野湾市真志喜2-10-1
いすのき児童公園,26.27265703,127.7386109,沖縄県宜野湾市真志喜2-4-1
ましき児童公園,26.27382825,127.7360406,沖縄県宜野湾市真志喜3-12-1
ゆうな児童公園,26.27610388,127.7333515,沖縄県宜野湾市真志喜3-23-1
市立グラウンド,26.27719743,127.7339579,沖縄県宜野湾市真志喜3-25-1
宜野湾海浜公園,26.28134082,127.7363104,沖縄県宜野湾市真志喜4-2-1
あかみち公園,26.27187585,127.7704085,沖縄県宜野湾市赤道1-5-14
あだん児童公園,26.27742397,127.7385346,沖縄県宜野湾市大山6-26-1
シーサー児童公園,26.27887586,127.7384785,沖縄県宜野湾市大山6-44-8
ながた児童公園,26.26098487,127.7661942,沖縄県宜野湾市長田3-27
ふてんま公園,26.29273702,127.7799974,沖縄県宜野湾市普天間1-22-22
あすなろ児童公園,26.28009913,127.7793173,沖縄県宜野湾市野嵩1-12-1
きさらぎ児童公園,26.28439778,127.781768,沖縄県宜野湾市野嵩1-43
まつのおか児童公園,26.27905417,127.781353,沖縄県宜野湾市野嵩1-6-1
のだけ公園,26.28792626,127.7833674,沖縄県宜野湾市野嵩3-15-45
ひがし児童公園,26.29143729,127.7840667,沖縄県宜野湾市野嵩4-23-17
伊原間はんな岳,24.51575101,124.2824143,沖縄県石垣市伊原間155-12
トムル岳,24.53336352,124.3004997,沖縄県石垣市伊原間155-2
伊原間中学校,24.50872924,124.2815169,沖縄県石垣市伊原間28
宮良小学校,24.35575588,124.2232767,沖縄県石垣市宮良331-1
産業廃棄物処理場前付近,24.35580433,124.231586,沖縄県石垣市宮良422-6
崎枝小中学校,24.44080851,124.1046559,沖縄県石垣市崎枝530-18
県営新川団地２号棟　（５階以上の通路及び階段）,24.35564348,124.1431639,沖縄県石垣市字新川2212-1
ドリームハイツ空　（５階以上の通路及び階段）,24.33647842,124.1826761,沖縄県石垣市字真栄里307-6
ドリームタウン宮鳥　（５階以上の通路及び階段）,24.33815179,124.1863117,沖縄県石垣市字真栄里349-5
石垣市役所,24.344419,124.185245,沖縄県石垣市字真栄里672
福祉避難所兼ふれあい交流施設「結い心センター」,24.34529095,124.162593,沖縄県石垣市字大川100-3
石垣市健康福祉センター,24.34782972,124.1710705,沖縄県石垣市字登野城1357-1
ホテルルートイングランティア石垣　（５階以上）,24.34252649,124.1513051,沖縄県石垣市新栄町21
新栄公園,24.34071902,124.1534551,沖縄県石垣市新栄町3-1
海上保安庁新栄町宿舎　（５階供用廊下、屋上）,24.34658285,124.1472883,沖縄県石垣市新栄町58
新川公園,24.35153847,124.1463913,沖縄県石垣市新川2395-1
ホテルロイヤルマリンパレス（５階以上）,24.35531239,124.1359702,沖縄県石垣市新川2459-1
石垣中学校,24.34776636,124.1541918,沖縄県石垣市新川307
石垣青少年の家,24.36876715,124.1436461,沖縄県石垣市新川868
県営平真団地（高層１・２号棟５階以上）,24.33491241,124.1700421,沖縄県石垣市真栄里109
真栄里公園,24.33300615,124.168253,沖縄県石垣市真栄里109-3
ブルーシーナリー真栄里（５階以上）,24.3327317,124.1778847,沖縄県石垣市真栄里204-64
ドリームハイツ　（５階以上の通路及び階段）,24.33683587,124.182882,沖縄県石垣市真栄里307-1
ＡＮＡインターコンチネンタル石垣リゾート（５階以上）,24.33592431,124.1893705,沖縄県石垣市真栄里354-1
沖縄県八重山合同庁舎　（５階会議室・研修室）,24.34033396,124.1878003,沖縄県石垣市真栄里438-1
八重山運輸事務所北三又路,24.35141084,124.1884078,沖縄県石垣市真栄里820-1
コンフォート真栄里（５階以上）,24.33444178,124.1686826,沖縄県石垣市真栄里97-4
石垣小学校,24.34533229,124.1586978,沖縄県石垣市石垣204
ポーサーおばさん食卓前公園,24.44745511,124.1681069,沖縄県石垣市川平1216-156
吉原小学校,24.44770511,124.1580464,沖縄県石垣市川平1218-137
大嵩公民館,24.43899175,124.1349572,沖縄県石垣市川平1218-194
川平ロータリー付近,24.46285125,124.1374051,沖縄県石垣市川平862
川平小中学校,24.45905944,124.1393001,沖縄県石垣市川平969
八重山農林高校,24.34510824,124.1644447,沖縄県石垣市大川477-1
大浜中学校（校舎２階以上）,24.34646184,124.1951702,沖縄県石垣市大浜103
石垣島徳洲会病院　（５階以上の通路、階段）,24.33990344,124.1897604,沖縄県石垣市大浜446-1
ホテルグランビュー（５階以上）,24.33812548,124.1582753,沖縄県石垣市登野城1
石垣第二中学校,24.34468882,124.1675748,沖縄県石垣市登野城1078
石垣市中央運動公園,24.34492321,124.1730251,沖縄県石垣市登野城1408-1
ホテルハッピーホリデー石垣島　（５階以上）,24.33715772,124.1591711,沖縄県石垣市登野城16
バンナ公園北口広場,24.38405333,124.1747895,沖縄県石垣市登野城2241-1
八重山高校,24.34179967,124.164846,沖縄県石垣市登野城275
登野城小学校,24.34233479,124.1636748,沖縄県石垣市登野城290
丸栄タイル商会ビル（３階広場）,24.33467149,124.1661357,沖縄県石垣市登野城552-2
合同宿舎石垣住宅１１号棟　（５階供用廊下・エレベーターホール）,24.33550732,124.1679423,沖縄県石垣市登野城589
合同宿舎石垣住宅１２号棟　（５階供用廊下・エレベーターホール）,24.33574193,124.1680228,沖縄県石垣市登野城589
合同宿舎石垣住宅１０号棟　（５階供用廊下）,24.33541934,124.1683607,沖縄県石垣市登野城589
大里公民館,24.42015613,124.2452035,沖縄県石垣市桃里165-189
とりなき山,24.43946921,124.2422768,沖縄県石垣市桃里165-550
番屋,24.45166832,124.2415239,沖縄県石垣市桃里200-16
金比羅,24.468412,124.2454077,沖縄県石垣市桃里200-227
ゆなむり,24.36684981,124.2344365,沖縄県石垣市白保1057-76
アパホテル石垣島（５階以上）,24.33504292,124.1593485,沖縄県石垣市八島町1-2-3
ホテルチューリップ石垣島　（５階以上の通路、階段及び７階屋上）,24.33462795,124.1590569,沖縄県石垣市八島町1-3-5
ホテルピースアイランド石垣島　（５階以上）,24.33971397,124.1546822,沖縄県石垣市美崎町11-1
ホテルイーストチャイナシー　（５階以上の通路及び階段）,24.3371626,124.1583343,沖縄県石垣市美崎町2-8
南の美ら花ホテル　ミヤヒラ（美崎館）　（５階以上の通路及び階段、９階屋上）,24.33816541,124.1559916,沖縄県石垣市美崎町4-9
南の美ら花ホテル　ミヤヒラ　（５階以上）,24.33847251,124.1551114,沖縄県石垣市美崎町4-9
ホテルエメラルドアイル石垣島　（５階以上の通路及び階段、屋上）,24.33888796,124.1549236,沖縄県石垣市美崎町7-14
石垣島ホテル　クルル（５階以上）,24.33899549,124.1568923,沖縄県石垣市美崎町8-1
ベッセルホテル石垣島　（５階以上通路、階段及び屋上）,24.33967029,124.1515839,沖縄県石垣市浜崎町1-2-7
蓬莱閣マンション（５階以上）,24.34110724,124.1519916,沖縄県石垣市浜崎町2-1-7
東横イン石垣島（５階以上）,24.3385608,124.1486227,沖縄県石垣市浜崎町3-2-12
石ムルク,24.58220992,124.3140214,沖縄県石垣市平久保226-73
久宇良公民館,24.56194099,124.2897153,沖縄県石垣市平久保234-231
明石集落北方携帯基地局付近,24.54579851,124.2975848,沖縄県石垣市平久保234-541
平野公民館,24.60090037,124.3260531,沖縄県石垣市平久保424
多良間公民館,24.49360868,124.2342062,沖縄県石垣市野底1204
栄公民館,24.50795075,124.2508962,沖縄県石垣市野底455-1
兼城公民館,24.49973007,124.2444961,沖縄県石垣市野底932
富野公民館,24.45312352,124.203972,沖縄県石垣市桴海148-55
伊土名集落南方高台,24.47790935,124.2293924,沖縄県石垣市桴海337-77
米原ヤシ群落駐車場,24.45185487,124.1948824,沖縄県石垣市桴海546
ニュータウン公園,26.244734,127.719001,沖縄県浦添市安波茶1-13
和久原公園,26.247659,127.718379,沖縄県浦添市安波茶1-28
あじさい公園,26.242256,127.720841,沖縄県浦添市安波茶3-26
老年原公園,26.243555,127.719259,沖縄県浦添市安波茶3-34
浅の浦公園,26.251595,127.717344,沖縄県浦添市伊祖1-13
あさやら公園,26.253067,127.719688,沖縄県浦添市伊祖1-25-1
ひなぎく公園,26.250192,127.716531,沖縄県浦添市伊祖1-3-1
浦城小学校,26.25376706,127.7171665,沖縄県浦添市伊祖2-13-1
ひなげし公園,26.255184,127.718186,沖縄県浦添市伊祖2-23-8
かんな公園,26.252913,127.715354,沖縄県浦添市伊祖2-9-11
浦添商業高等学校,26.25905046,127.7204105,沖縄県浦添市伊祖3-11-1
すずらん公園,26.255751,127.720038,沖縄県浦添市伊祖3-3-8
伊祖公園,26.257878,127.723121,沖縄県浦添市伊祖3-48
まえはら公園,26.254391,127.721591,沖縄県浦添市伊祖4-9-1
たんぽぽ公園,26.250774,127.712318,沖縄県浦添市屋富祖1-7-1
仲西中学校,26.25016061,127.7098417,沖縄県浦添市屋富祖2-13-1
仲西小学校,26.25015144,127.7069415,沖縄県浦添市屋富祖2-32-1
なかし公園,26.252471,127.708207,沖縄県浦添市屋富祖3-1
宮城公園,26.248333,127.708723,沖縄県浦添市宮城2-1
ひまわり公園,26.247965,127.70468,沖縄県浦添市宮城2-22-1
せせらぎ公園,26.246754,127.707264,沖縄県浦添市宮城3-1
チョンダ公園,26.245965,127.704196,沖縄県浦添市宮城3-12-1
宮の浦公園,26.246913,127.702136,沖縄県浦添市宮城3-15-5
宮城小学校,26.24699309,127.7064812,沖縄県浦添市宮城3-7-3
大宮公園,26.244002,127.705891,沖縄県浦添市宮城4-2
宮仲公園,26.245638,127.701406,沖縄県浦添市宮城4-21-9
夕陽が丘公園,26.239984,127.722028,沖縄県浦添市経塚1-17
龍巻松の木公園,26.238748,127.724087,沖縄県浦添市経塚916
港川中学校,26.26138027,127.7182526,沖縄県浦添市港川1-1-1
牧港緑地（展望広場）,26.263137,127.719058,沖縄県浦添市港川1-34
経塚洗江良原公園,26.237624,127.719899,沖縄県浦添市字経塚253-9
港川サンハイツ公園,26.265044,127.712306,沖縄県浦添市字港川281-49
港川原公園,26.265075,127.71177,沖縄県浦添市字港川310-23
ＪＩＣＡ沖縄センター,26.23808653,127.7315027,沖縄県浦添市字前田1143-1
前田上原公園,26.238267,127.735502,沖縄県浦添市字前田1317-9
グリーンハイツ公園,26.240828,127.726431,沖縄県浦添市字前田824-1
前田ありあけハイツ公園,26.238636,127.728239,沖縄県浦添市字前田990-9
大平瓶ノ平原公園,26.24177,127.711341,沖縄県浦添市字大平479-1
沢岻緑地,26.236169,127.716233,沖縄県浦添市字沢岻391-1
沢岻長田原公園,26.236256,127.718245,沖縄県浦添市字沢岻974
城間南公園,26.251548,127.713502,沖縄県浦添市城間2-1-1
すみれ公園,26.253494,127.713212,沖縄県浦添市城間2-11-1
あさがお公園,26.256616,127.71167,沖縄県浦添市城間3-18-1
うしもー公園,26.257262,127.710719,沖縄県浦添市城間3-21-1
ぱんじー公園,26.256736,127.716676,沖縄県浦添市城間4-25-22
浦城公園,26.260082,127.714665,沖縄県浦添市城間4-33
港川小学校,26.26098105,127.7160188,沖縄県浦添市城間4-37-1
まつば公園,26.261168,127.71677,沖縄県浦添市城間4-38-7
泉小公園,26.25608474,127.7139652,沖縄県浦添市城間4-4
勢理客小公園,26.241597,127.695382,沖縄県浦添市勢理客1-22
神森小学校,26.24192863,127.6996848,沖縄県浦添市勢理客1-4-1
ゆうな公園,26.243588,127.697171,沖縄県浦添市勢理客2-6
むつき公園,26.241375,127.692242,沖縄県浦添市勢理客3-11
組踊公園,26.245678,127.688218,沖縄県浦添市勢理客4-14
うがんやま公園,26.250719,127.749021,沖縄県浦添市西原4-36
つなひき公園,26.250988,127.744021,沖縄県浦添市西原4-9
にしばる公園,26.24828206,127.7407027,沖縄県浦添市西原5-13
浦西さくら公園,26.247524,127.744322,沖縄県浦添市西原5-25
浦西あじさい公園,26.245581,127.742928,沖縄県浦添市西原5-27
浦西でいご公園,26.245985,127.744252,沖縄県浦添市西原5-29
浦西しらゆり公園,26.248168,127.745841,沖縄県浦添市西原5-42
浦西ひまわり公園,26.24645,127.74718,沖縄県浦添市西原6-28
浦西カトレア公園,26.245273,127.745695,沖縄県浦添市西原6-30
前田東上原公園,26.238538,127.737232,沖縄県浦添市前田1-46
前田山川原公園,26.24481815,127.7330199,沖縄県浦添市前田2-11
ドラゴン公園,26.246472,127.738837,沖縄県浦添市前田3-7
前田小学校,26.23899375,127.7343946,沖縄県浦添市前田333
でいご公園,26.23692,127.736249,沖縄県浦添市前田4-16
沢岻兼元原公園,26.24189439,127.7088335,沖縄県浦添市大平2-16
大平小公園,26.246139,127.71044,沖縄県浦添市大平2-5
めじろ公園,26.236668,127.709957,沖縄県浦添市沢岻1-47
沢岻前原公園,26.2347241,127.717633,沖縄県浦添市沢岻1-7
沢岻端川原東公園,26.234379,127.711298,沖縄県浦添市沢岻2-13
クニンドーの森公園,26.2352534,127.7091841,沖縄県浦添市沢岻2-16
沢岻前原西公園,26.233975,127.713959,沖縄県浦添市沢岻2-5
沢岻小学校,26.23671265,127.7169813,沖縄県浦添市沢岻998
ＡＮＡ　ＳＰＯＲＴＳ　ＰＡＲＫ浦添（浦添運動公園）,26.25123794,127.7229808,沖縄県浦添市仲間1-13
浦添カルチャーパーク,26.25079539,127.7203892,沖縄県浦添市仲間1-9
浦添中学校,26.24596563,127.7272975,沖縄県浦添市仲間2-46-1
浦添小学校,26.24697147,127.7297538,沖縄県浦添市仲間2-47-1
浦添墓地公園,26.25243884,127.72767,沖縄県浦添市仲間2-54
茶山第１公園,26.24338076,127.7272543,沖縄県浦添市仲間3-14
茶山第２公園,26.244573,127.727491,沖縄県浦添市仲間3-4
仲の浦公園,26.247047,127.700177,沖縄県浦添市仲西2-2-22
当山ハイツ公園,26.253894,127.731468,沖縄県浦添市当山1-9
当山勢理原公園,26.251063,127.734148,沖縄県浦添市当山2-23
当山小学校,26.25194641,127.7334072,沖縄県浦添市当山2-34-1
当山小公園,26.252316,127.732477,沖縄県浦添市当山2-37
浦西中学校,26.24849934,127.7357638,沖縄県浦添市当山3-1-1
内間東原公園,26.238987,127.706936,沖縄県浦添市内間1-13
神森中学校,26.23933492,127.7070817,沖縄県浦添市内間1-6-1
内間東公園,26.235376,127.704053,沖縄県浦添市内間2-19
内間西公園,26.23735818,127.6987487,沖縄県浦添市内間3-17
浦添高等学校,26.2376735,127.7029336,沖縄県浦添市内間3-26-1
内間後原公園,26.240904,127.705097,沖縄県浦添市内間4-18
内間小学校,26.23907085,127.7044504,沖縄県浦添市内間4-3-1
内間後原なかよし公園,26.239883,127.702902,沖縄県浦添市内間4-8
内間西原公園,26.239286,127.697532,沖縄県浦添市内間5-14
牧港緑地（ふれあい広場）,26.26359243,127.7197168,沖縄県浦添市牧港1-63-1
牧港小学校,26.25929777,127.7245177,沖縄県浦添市牧港2-14-1
まちなと公園,26.26304,127.724555,沖縄県浦添市牧港2-38
安川北公園,26.257397,127.730353,沖縄県浦添市牧港3-30-1
安川南公園,26.256299,127.729717,沖縄県浦添市牧港3-36-1
うえの公園,26.268643,127.723641,沖縄県浦添市牧港5-19
うえの北公園,26.26885,127.723499,沖縄県浦添市牧港5-20
名護特別支援学校後方交差点,26.599833,127.957861,沖縄県名護市
安部区津波避難目標地点２,26.541694,128.085639,沖縄県名護市安部
安部区津波避難目標地点１,26.542472,128.0915,沖縄県名護市安部
県職員住宅入口,26.598556,127.954222,沖縄県名護市宇茂佐428-15
あだね川公園,26.60110632,127.9624115,沖縄県名護市宇茂佐の森4-9
宮里キリストの教会駐車場,26.59454326,127.9670801,沖縄県名護市宮里3-30-30
宮里公園,26.59980661,127.9699351,沖縄県名護市宮里4-7
名護市立大宮小学校,26.59711091,127.9737776,沖縄県名護市宮里5-13-22
名護厚生園,26.60004572,127.971271,沖縄県名護市宮里5-4-29
名護市立中央図書館,26.5996096,127.9706038,沖縄県名護市宮里5-6-1
名護市民会館屋上,26.59073721,127.9751966,沖縄県名護市港2-1-1
稲嶺区津波避難目標地点（クイユーのＴ字路）,26.630222,128.041889,沖縄県名護市字
カヌチャベイリゾート駐車場,26.5485946,128.0774252,沖縄県名護市字安部156-2
山川股,26.54546,128.087204,沖縄県名護市字安部１２３－９
琉球セメント事務所屋上,26.6131201,127.9251213,沖縄県名護市字安和1008
部間権現の鳥居,26.60722347,127.9009188,沖縄県名護市字安和2640
伊差川運動公園,26.61131951,128.0052581,沖縄県名護市字伊差川32-2
北部地区医師会北部看護学校駐車場,26.61252227,127.9715699,沖縄県名護市字為又1219-91
為又公園,26.61055383,127.9745197,沖縄県名護市字為又420
名護療育園駐車場,26.60813789,127.9643268,沖縄県名護市字宇茂佐1765
運天原共同墓地駐車場,26.66875714,128.0046564,沖縄県名護市字運天原575-1
農業用２号給水所,26.66842002,128.0006652,沖縄県名護市字運天原676-3
ナガマシのあじまぁ,26.67169295,128.0078536,沖縄県名護市字運天原89
屋我の拝所,26.65321005,128.0281342,沖縄県名護市字屋我272
屋部区津波避難目標地点（国道４４９号上）,26.605806,127.956083,沖縄県名護市字屋部
勝山ガーデンゴルフ練習場前,26.604944,127.943889,沖縄県名護市字屋部
名護市ポンプ場横一帯,26.554083,128.109583,沖縄県名護市字嘉陽
嘉陽区津波避難目標地点,26.546667,128.099361,沖縄県名護市字嘉陽
上城（拝所）,26.553306,128.108389,沖縄県名護市字嘉陽
山口バス停前,26.66224657,127.9979891,沖縄県名護市字我部1119
我部祖河之御嶽,26.62070942,128.0024853,沖縄県名護市字我部祖河33-1
喜瀬ビーチパレスホテル,26.53622479,127.9452347,沖縄県名護市字喜瀬115-2
喜瀬カントリークラブ宿舎前,26.52440086,127.9396358,沖縄県名護市字喜瀬1345-1
みらい４号館,26.51472178,128.0161722,沖縄県名護市字久志283
久志公園,26.51735457,128.0069781,沖縄県名護市字久志790-1
スーパーホテル沖縄名護,26.60455757,127.9741968,沖縄県名護市字宮里1018
ホテルゆがふいんおきなわ,26.59335595,127.9651086,沖縄県名護市字宮里453-1
許田区津波避難目標地点,26.53941958,127.9715067,沖縄県名護市字許田675
源河区津波避難目標地点２,26.631222,128.068167,沖縄県名護市字源河
源河区津波避難目標地点１,26.63203378,128.0709778,沖縄県名護市字源河1856
嵐山展望台,26.6429609,127.989081,沖縄県名護市字呉我1460-2
嵐山茶工場,26.63859326,127.9949713,沖縄県名護市字呉我940-2
赤混田原高台,26.539278,127.958306,沖縄県名護市字幸喜
仲兼久原高台,26.5365,127.954667,沖縄県名護市字幸喜
沖縄サンコーストホテル,26.53817686,127.9490043,沖縄県名護市字幸喜108
ベストウェスタン沖縄幸喜ビーチ,26.53888529,127.9485089,沖縄県名護市字幸喜117
幸喜貯水タンク前,26.53595127,127.9512731,沖縄県名護市字幸喜655
伊是名高台２,26.664806,128.015222,沖縄県名護市字済井出
伊是名高台１,26.666472,128.014306,沖縄県名護市字済井出
三原区津波避難目標地点,26.569694,128.069917,沖縄県名護市字三原
安和区津波避難目標地点（山入端１３号線）,26.61,127.933222,沖縄県名護市字山入端
山入端区津波避難目標地点１,26.606222,127.936639,沖縄県名護市字山入端
山入端区津波避難目標地点,26.6115,127.936611,沖縄県名護市字山入端
山小屋,26.623922,127.936607,沖縄県名護市字勝山３７８－１
真喜屋公民館,26.63024575,128.0385328,沖縄県名護市字真喜屋73
真喜屋阿社義,26.62907404,128.0387185,沖縄県名護市字真喜屋84
仲尾区津波避難目標地点,26.627528,128.016417,沖縄県名護市字親川
親川公民館,26.62400755,128.0165446,沖縄県名護市字親川67-1
数久田タンク場前,26.565361,127.987528,沖縄県名護市字数久田
世冨慶区運動公園,26.57493138,127.9861393,沖縄県名護市字世冨慶139-1
名護市食肉センター駐車場,26.57150196,127.9914443,沖縄県名護市字世冨慶755
エナジックカントリークラブ駐車場,26.55258109,128.0566386,沖縄県名護市字瀬嵩463-3
川上公民館,26.61923763,128.018456,沖縄県名護市字川上3
大浦シンナトウ,26.55479812,128.0438151,沖縄県名護市字大浦151
大川区津波避難目標地点１,26.571972,128.031556,沖縄県名護市字大川
大川区津波避難目標地点２,26.574167,128.039972,沖縄県名護市字大川
中山公民館,26.62186379,127.9654691,沖縄県名護市字中山129
羽地大橋,26.628472,128.027528,沖縄県名護市字仲尾次
屋之上（ヤーノウイ）,26.62461578,128.0288154,沖縄県名護市字仲尾次1067-1
名護市立羽地中学校,26.62439503,128.0215386,沖縄県名護市字仲尾次756
羽地地区センター,26.62307372,128.0238138,沖縄県名護市字仲尾次829
汀間区津波避難場所,26.555556,128.060417,沖縄県名護市字汀間
有津簡易水道タンク,26.585833,128.123167,沖縄県名護市字天仁屋
有津津波避難目標地点１,26.587972,128.127389,沖縄県名護市字天仁屋
天仁屋公民館,26.56993695,128.1349719,沖縄県名護市字天仁屋273
底仁屋公民館,26.57244798,128.1223181,沖縄県名護市字天仁屋696-1
山田公園,26.61245203,128.0113731,沖縄県名護市字田井等909
デイサービス二見の里,26.54729283,128.0241332,沖縄県名護市字二見241-7
辺野古紫雲道場,26.52386608,128.0313297,沖縄県名護市字辺野古134-15
辺野古運動公園,26.52156831,128.0330861,沖縄県名護市字辺野古360-79
名護市立久辺中学校,26.52151375,128.0231272,沖縄県名護市字豊原208
名護市立久辺小学校,26.51989243,128.0237554,沖縄県名護市字豊原208
豊原公民館,26.52069804,128.0208217,沖縄県名護市字豊原221-24
名護城公園ノッポ椰子の広場,26.58975,127.992333,沖縄県名護市字名護
伊是名高台３,26.663139,128.016194,沖縄県名護市字饒平名
屋我地支所,26.66091559,128.0125569,沖縄県名護市字饒平名1177-1
饒平名区津波避難目標地点,26.65958435,128.008464,沖縄県名護市字饒平名1243-1
うみのほし幼稚園,26.59369366,127.9831222,沖縄県名護市大西2-1-20
大西公民館,26.59650689,127.9836044,沖縄県名護市大西3-8-12
名護市産業支援センター,26.59050729,127.9853879,沖縄県名護市大中1-19-24
大中緑地公園,26.59518509,127.9861049,沖縄県名護市大中3-17
嵩原公園,26.59404045,127.9902202,沖縄県名護市大中5-1
大東区公園,26.59182892,127.9913674,沖縄県名護市大東3-11-18
ホテルデルフィーノ名護,26.59230464,127.9800267,沖縄県名護市大南1-5-14
大中公園,26.59843858,127.9893482,沖縄県名護市大北1-28
大北公民館,26.60126359,127.9944532,沖縄県名護市大北1-7-1
柳児童公園,26.60551984,127.9835738,沖縄県名護市大北5-9-11
名護城大橋津波避難目標地点,26.587278,127.99175,沖縄県名護市東江2
オリオンビール（株）名護工場事務所屋上,26.58636027,127.9889816,沖縄県名護市東江2-2-1
県営東江高層住宅,26.58500666,127.9836307,沖縄県名護市東江5-1-1
ホテルルートイン名護,26.58034004,127.9848804,沖縄県名護市東江5-11-3
潮平中学校校舎,26.14822065,127.6748465,沖縄県糸満市阿波根1200
潮平中学校グラウンド,26.14760909,127.6746265,沖縄県糸満市阿波根1200
優美堂駐車場,26.09545569,127.6912447,沖縄県糸満市伊原372-2
ひめゆり会館駐車場,26.0963662,127.6897159,沖縄県糸満市伊原734
兼城小学校グラウンド,26.14517546,127.6904324,沖縄県糸満市賀数1
喜屋武小学校グラウンド,26.09393307,127.6657781,沖縄県糸満市喜屋武555
県営浜川団地,26.14166957,127.6731895,沖縄県糸満市兼城340
エンゼルハイム糸満,26.13612176,127.6703942,沖縄県糸満市兼城581-1
兼城中学校グラウンド,26.1447228,127.69128,沖縄県糸満市座波1271
沖縄県立糸満高校,26.12888983,127.6760836,沖縄県糸満市糸満1696-1
糸満中学校グラウンド,26.13146333,127.6762642,沖縄県糸満市糸満1880
糸満小学校グラウンド,26.13056753,127.6745475,沖縄県糸満市糸満673
平和創造の森公園多目的広場,26.08525774,127.6869644,沖縄県糸満市字山城449
国道３３１号糸満高架橋,26.13104236,127.6649072,沖縄県糸満市字糸満
稲嶺原市営住宅Ａ棟,26.12724514,127.6786365,沖縄県糸満市字糸満1736
第一市営住宅,26.129477,127.663372,沖縄県糸満市字糸満2276
糸満市中央図書館,26.11947521,127.6725274,沖縄県糸満市真栄里1448
ロンドン杜公園,26.11853954,127.6741097,沖縄県糸満市真栄里1473
社会福祉センターグラウンド,26.11196107,127.6716315,沖縄県糸満市真栄里857
三和中学校グラウンド,26.10273255,127.6896361,沖縄県糸満市真壁519
真壁小学校グラウンド,26.1031902,127.688708,沖縄県糸満市真壁630
沖縄水産高等学校,26.13560966,127.6662914,沖縄県糸満市西崎1-1-1
サザンビーチホテル,26.13199298,127.652945,沖縄県糸満市西崎1-6-1
西崎小学校グラウンド,26.14233783,127.6673097,沖縄県糸満市西崎2-4-1
西崎小学校校舎,26.14199591,127.6664514,沖縄県糸満市西崎2-4-1
県営西崎団地,26.14403143,127.6661594,沖縄県糸満市西崎2-5-9
西崎中学校グラウンド,26.14696081,127.669519,沖縄県糸満市西崎3-422
西崎中学校校舎,26.1473942,127.6692884,沖縄県糸満市西崎3-422
すこやか館,26.1429833,127.6703866,沖縄県糸満市西崎6-4-8
西崎総合運動公園,26.14643562,127.6630462,沖縄県糸満市西崎町3-1
スポーツロッジ糸満,26.1468202,127.6607705,沖縄県糸満市西崎町3-1
光洋小学校グラウンド,26.1490962,127.663571,沖縄県糸満市西崎町3-7-12
県営西崎第２団地,26.14919729,127.6619796,沖縄県糸満市西崎町3-7-9
高嶺小学校グラウンド,26.12765131,127.6894533,沖縄県糸満市大里1901
高嶺中学校グラウンド,26.12701557,127.6882892,沖縄県糸満市大里1902
糸満市役所,26.12355419,127.6657723,沖縄県糸満市潮崎町1-1
糸満南小学校グラウンド,26.12018547,127.6668765,沖縄県糸満市潮崎町3-1
潮平小学校グラウンド,26.14552399,127.6743154,沖縄県糸満市潮平634-2
潮平小学校校舎,26.14539879,127.6748679,沖縄県糸満市潮平634-2
県営潮平高層住宅,26.15075565,127.6706951,沖縄県糸満市潮平791
琉球ガラス村駐車場,26.09757341,127.6780441,沖縄県糸満市福地169
ひめゆり観光センターでいご駐車場,26.09634231,127.6913756,沖縄県糸満市米須1056
米須小学校グラウンド,26.09655248,127.6987724,沖縄県糸満市米須632
糸満市観光農園,26.10300125,127.7173603,沖縄県糸満市摩文仁1018
平和祈念公園,26.09494536,127.7232802,沖縄県糸満市摩文仁444
安慶田小学校（運動場）,26.334965,127.813403,沖縄県沖縄市安慶田2-18-1
安慶田中学校（運動場）,26.33150014,127.812429,沖縄県沖縄市安慶田3-8-1
越来中学校（運動場）,26.34170917,127.8116983,沖縄県沖縄市越来1-2-1
越来小学校（運動場）,26.342561,127.812369,沖縄県沖縄市越来1-2-2
美来工科高等学校（運動場）,26.34898176,127.807948,沖縄県沖縄市越来3-17-1
諸見里公園,26.32672024,127.7963947,沖縄県沖縄市園田3-25
センター公園,26.3403425,127.8026493,沖縄県沖縄市嘉間良1-1
マンタ公園,26.33182029,127.8349648,沖縄県沖縄市海邦2-13
島袋小学校（運動場）,26.324894,127.798209,沖縄県沖縄市久保田2-21-1
宮里小学校（運動場）,26.338868,127.821807,沖縄県沖縄市宮里3-27-1
諸見小学校（運動場）,26.333372,127.800322,沖縄県沖縄市胡屋2-3-1
コザ中学校（運動場）,26.332054,127.80529,沖縄県沖縄市胡屋3-38-1
美東中学校（運動場）,26.32265736,127.8251589,沖縄県沖縄市高原5-12-1
高原小学校（運動場）,26.32215731,127.825808,沖縄県沖縄市高原5-12-2
美東公園,26.32165735,127.8272543,沖縄県沖縄市高原5-20
山内中学校（運動場）,26.323523,127.784573,沖縄県沖縄市山内2-20-1
山内小学校（運動場）,26.3248,127.784247,沖縄県沖縄市山内2-32-2
室川小学校（運動場）,26.335357,127.808586,沖縄県沖縄市室川2-24-1
コザ運動公園（広域）,26.33198708,127.7871785,沖縄県沖縄市諸見里2-1
松本都市緑地,26.35437758,127.8166858,沖縄県沖縄市松本1-27
美里高等学校（運動場）,26.355261,127.819746,沖縄県沖縄市松本2-5-1
コザ高等学校（運動場）,26.331383,127.819778,沖縄県沖縄市照屋5-5-1
中の町小学校（運動場）,26.333113,127.793205,沖縄県沖縄市上地3-4-1
美里中学校（運動場）,26.359801,127.818279,沖縄県沖縄市知花1-24-1
馬場都市緑地,26.36592315,127.8172958,沖縄県沖縄市知花6-41
コザ小学校（運動場）,26.342548,127.800729,沖縄県沖縄市中央4-16-1
北美小学校（運動場）,26.37669,127.821084,沖縄県沖縄市登川1515
農民研修センター　ふれあい広場（小規模）,26.36801984,127.8171943,沖縄県沖縄市登川2380
宮里中学校（運動場）,26.34370696,127.8251165,沖縄県沖縄市東2-17-1
若夏公園,26.34525568,127.824246,沖縄県沖縄市東2-23
美東小学校（運動場）,26.33351029,127.8279803,沖縄県沖縄市桃原3-4-1
沖縄東中学校（運動場）,26.329942,127.829815,沖縄県沖縄市桃原4-19-1
球陽高等学校・球陽中学校（運動場）,26.319306,127.785762,沖縄県沖縄市南桃原1-10-1
南桃原二丁目公園,26.31852006,127.7822035,沖縄県沖縄市南桃原2-5
八重島公園,26.34485696,127.8012443,沖縄県沖縄市八重島1-1
沖縄県総合運動公園（広域）,26.31043433,127.8223919,沖縄県沖縄市比屋根5-3-1
比屋根小学校（運動場）,26.314049,127.816723,沖縄県沖縄市比屋根6-2-1
美原小学校（運動場）,26.350052,127.82051,沖縄県沖縄市美原4-20-1
美里公園,26.34862873,127.8195605,沖縄県沖縄市美原4-4
美里小学校（運動場）,26.3504219,127.8127753,沖縄県沖縄市美里4-1-1
泡瀬小学校（運動場）,26.316405,127.835385,沖縄県沖縄市泡瀬2-33-10
黒潮公園,26.31754159,127.8348412,沖縄県沖縄市泡瀬2-34
美里工業高等学校（運動場）,26.326397,127.82995,沖縄県沖縄市泡瀬5-42-2
泡瀬市営住宅（津波避難ビル）,26.329795,127.831659,沖縄県沖縄市泡瀬6-27
明道公園,26.3563335,127.8220533,沖縄県沖縄市明道1-13
宜保ふるじま公園,26.178831,127.679604,沖縄県豊見城市宜保1-4
伊良波中学校グラウンド,26.17214567,127.672384,沖縄県豊見城市字伊良波273
伊良波小学校グラウンド,26.1738814,127.672596,沖縄県豊見城市字伊良波300
豊見城南高等学校グラウンド,26.15959588,127.6717017,沖縄県豊見城市字翁長520
豊見城ニュータウンテニスコート,26.187662,127.69713,沖縄県豊見城市字嘉数671-1
我那覇児童公園,26.181035,127.668029,沖縄県豊見城市字我那覇189-1
平和台太陽公園,26.179505,127.675078,沖縄県豊見城市字宜保157-1
とよみ小学校グラウンド,26.18487372,127.6889129,沖縄県豊見城市字高安1132-2
高安台公園,26.180124,127.687862,沖縄県豊見城市字高安676-23
豊見城小学校グラウンド,26.1674637,127.6996809,沖縄県豊見城市字高嶺439-2
豊見城ニュータウン第２号公園,26.188061,127.695496,沖縄県豊見城市字根差部108-14
豊見城ニュータウン第１号公園,26.18954276,127.6940237,沖縄県豊見城市字根差部123-1
座安小学校グラウンド,26.16567858,127.6728571,沖縄県豊見城市字座安230-1
とよみ公園,26.192827,127.697783,沖縄県豊見城市字真玉橋428-21
瀬長島展望広場,26.17456156,127.642748,沖縄県豊見城市字瀬長155
長堂公民館広場,26.182529,127.705638,沖縄県豊見城市字長堂71
県営渡橋名団地多目的広場,26.1664974,127.6768239,沖縄県豊見城市字渡橋名160
豊見城団地緑地,26.16908694,127.6964842,沖縄県豊見城市字平良
豊見城総合公園,26.17472945,127.6912244,沖縄県豊見城市字平良468-3
保栄茂馬場公園,26.160001,127.681278,沖縄県豊見城市字保栄茂246
すみれ児童公園,26.18219752,127.6758806,沖縄県豊見城市字豊見城422
ゆたか小学校グラウンド,26.18062103,127.681878,沖縄県豊見城市字豊見城601-1
空手会館駐車場,26.187419,127.682156,沖縄県豊見城市字豊見城854-1
豊崎小学校グラウンド,26.15759643,127.663442,沖縄県豊見城市字豊崎1-406
国道３３１号与根高架橋,26.16595589,127.6515107,沖縄県豊見城市字与根584
長嶺小学校グラウンド,26.18119636,127.6946973,沖縄県豊見城市字饒波1018
長嶺中学校グラウンド,26.18283967,127.6967425,沖縄県豊見城市字饒波1068-2
のびのび公園,26.3770348,127.8560481,沖縄県うるま市みどり町4-9-1
ビーバー公園,26.37844557,127.8528835,沖縄県うるま市みどり町5-17-1
みどり公園,26.38213244,127.855362,沖縄県うるま市みどり町6-10-10
さくら公園,26.37994735,127.8544109,沖縄県うるま市みどり町6-9-1
安慶名中央公園（城跡）,26.38139601,127.8505928,沖縄県うるま市安慶名1045
安慶名第一公園,26.37275628,127.8497779,沖縄県うるま市安慶名308
栄野比公園,26.38930928,127.8336899,沖縄県うるま市栄野比1006-1
上平良川公園,26.3593827,127.8462098,沖縄県うるま市喜屋武627-1
喜仲児童公園,26.35532641,127.8435325,沖縄県うるま市喜仲2-836-3
喜屋武マーブ公園,26.35336299,127.8501983,沖縄県うるま市喜仲4-1
さんかく公園,26.35505327,127.8335962,沖縄県うるま市宮里207-1
げんき公園,26.35574413,127.8353438,沖縄県うるま市宮里263-2
宮里児童公園,26.35392806,127.8376924,沖縄県うるま市宮里330
いーしぬめー公園,26.34484622,127.8306146,沖縄県うるま市江洲177
江洲中央公園,26.34676625,127.8305442,沖縄県うるま市江洲232
なかばる公園,26.34873057,127.8281646,沖縄県うるま市江洲301-1
昆布公園,26.39807814,127.8411914,沖縄県うるま市昆布1832-354
平安座防災道路,26.34375519,127.9548392,沖縄県うるま市集落背後の高台道路
津堅公園,26.25016966,127.9382113,沖縄県うるま市勝連津堅1542
内間公園,26.31830792,127.9006497,沖縄県うるま市勝連内間937
南風原第二公園,26.33433168,127.8816475,沖縄県うるま市勝連南風原4212
平安名第二公園,26.31861874,127.8991007,沖縄県うるま市勝連平安名345-2
平安名公園,26.31942173,127.8966331,沖縄県うるま市勝連平安名529-1
平敷屋公園（タキノー）,26.30590463,127.9112462,沖縄県うるま市勝連平敷屋3472
西原第一公園,26.37579519,127.8476299,沖縄県うるま市西原126
石川青年少年の家,26.44571671,127.8354128,沖縄県うるま市石川3491-2
さくらんぼ公園,26.41386176,127.8187102,沖縄県うるま市石川山城1714
前原西公園,26.41072153,127.8205267,沖縄県うるま市石川山城785-1
長佐久公園,26.41665491,127.8275674,沖縄県うるま市石川曙2-2771
あけぼの公園,26.41942411,127.8270519,沖縄県うるま市石川曙2-2838
東恩納公園,26.40945411,127.8294135,沖縄県うるま市石川東恩納480-2
前原公園,26.41085187,127.8235298,沖縄県うるま市石川東恩納957-4
わかば公園,26.4087674,127.8237137,沖縄県うるま市石川東恩納975-2
東山ふれあい公園,26.43827508,127.837847,沖縄県うるま市石川東山2-11-1
市民の森公園,26.44714354,127.8325079,沖縄県うるま市石川東山3259-262
スポーツ広場,26.35345278,127.8304844,沖縄県うるま市赤道175-2
希望の広場,26.35448924,127.8294883,沖縄県うるま市赤道254-2
がじゅまる公園,26.36088285,127.8269235,沖縄県うるま市赤道502-39
ひまわり公園,26.36169791,127.8255248,沖縄県うるま市赤道578-80
交通安全公園,26.35722254,127.8332619,沖縄県うるま市赤道8-2
あだん公園,26.36348555,127.8283359,沖縄県うるま市赤道971-1
田場児童公園,26.36775977,127.8617958,沖縄県うるま市田場829
与那城公園,26.32607129,127.8909779,沖縄県うるま市与那城197
宮城中央公園,26.37179322,127.9850018,沖縄県うるま市与那城宮城170-6
西原公園,26.32815342,127.8865553,沖縄県うるま市与那城西原803
伊良部地区津波避難施設,24.81828954,125.1751672,沖縄県宮古島市伊良部字伊良部1471
旧伊良部中学校（グラウンド）,24.82758368,125.1717565,沖縄県宮古島市伊良部字国仲418
前里添多目的共同利用施設（大ホール・集会室）,24.84489,125.208682,沖縄県宮古島市伊良部字前里添536
旧佐良浜小学校（グラウンド）,24.83890805,125.2060673,沖縄県宮古島市伊良部字前里添717
伊良部カントリーパーク,24.83291591,125.1950742,沖縄県宮古島市伊良部字前里添946
旧伊良部小学校（グラウンド）,24.82976892,125.169144,沖縄県宮古島市伊良部字長浜1401
下地中学校（グラウンド）,24.74496504,125.2831759,沖縄県宮古島市下地字洲鎌250
下地小学校（グラウンド）,24.74671482,125.2841293,沖縄県宮古島市下地字洲鎌305
ツヌジ公園,24.74155029,125.2796101,沖縄県宮古島市下地字洲鎌570
川満構造改善センター,24.76166056,125.2861418,沖縄県宮古島市下地字川満191-1
与那覇地区防災センター,24.7493315,125.2686112,沖縄県宮古島市下地字与那覇1
宮古島皆愛マンション,24.73084959,125.2727462,沖縄県宮古島市下地字与那覇1388-5
宮国公民館,24.72478905,125.3222234,沖縄県宮古島市上野字宮国1241-3
大嶺集落センター,24.73222291,125.3265968,沖縄県宮古島市上野字宮国1302-1
名嘉山農村総合管理施設,24.73325617,125.3171925,沖縄県宮古島市上野字宮国1557-1
上野構造改善センター,24.7366152,125.3151735,沖縄県宮古島市上野字上野390-2
上野中学校（グラウンド）,24.7406683,125.3337412,沖縄県宮古島市上野字新里356-1
新里構造改善センター,24.73008173,125.3449656,沖縄県宮古島市上野字新里46-2
高田農村総合管理施設,24.73971191,125.3334541,沖縄県宮古島市上野字新里524-3
野原農民研修所,24.76173716,125.3238059,沖縄県宮古島市上野字野原1087
野原コミュニティ公園,24.76047484,125.3205535,沖縄県宮古島市上野字野原295-5
千代田集落場,24.76247306,125.3143105,沖縄県宮古島市上野字野原43-4
上野公民館,24.74243801,125.3266386,沖縄県宮古島市上野字野原708-1
上野小学校（グラウンド）,24.74269992,125.3324108,沖縄県宮古島市上野字野原734-2
豊原公民館,24.74455909,125.3304667,沖縄県宮古島市上野字野原814-3
下南公民館（広場）,24.74989432,125.3402202,沖縄県宮古島市城辺字下里添69-1
上区構造改善センター,24.76145799,125.346199,沖縄県宮古島市城辺字下里添905
砂川構造改善センター,24.7343849,125.353706,沖縄県宮古島市城辺字砂川218
砂川中学校（グラウンド）,24.7423955,125.3493546,沖縄県宮古島市城辺字砂川599
砂川小学校（グラウンド）,24.74348613,125.3482578,沖縄県宮古島市城辺字砂川605
砂川最寄集会所,24.74441096,125.3473163,沖縄県宮古島市城辺字砂川624
皆福農事集会所,24.73816708,125.406804,沖縄県宮古島市城辺字新城280-1
福嶺小学校（グラウンド）,24.74223886,125.4110065,沖縄県宮古島市城辺字新城448
福嶺中学校（グラウンド）,24.74386247,125.4118994,沖縄県宮古島市城辺字新城634
新城公民館,24.74863618,125.4127031,沖縄県宮古島市城辺字新城745-3
西西公民館,24.75884431,125.3639407,沖縄県宮古島市城辺字西里添1021-3
西城小学校（グラウンド）,24.76040649,125.3640205,沖縄県宮古島市城辺字西里添1048
西城中学校（グラウンド）,24.76162001,125.3634276,沖縄県宮古島市城辺字西里添1080
吉田地区農業活動拠点施設,24.76159543,125.3605592,沖縄県宮古島市城辺字西里添1298
西東地区農業活動拠点施設,24.74391897,125.3802758,沖縄県宮古島市城辺字西里添158
西中集落農事集会所,24.74885867,125.3699899,沖縄県宮古島市城辺字西里添709-8
長北集落センター,24.78199483,125.3658433,沖縄県宮古島市城辺字長間2324-3
長間自治会公民館,24.77042185,125.3632769,沖縄県宮古島市城辺字長間41-1
長南公民館（広場）,24.77216417,125.3475992,沖縄県宮古島市城辺字長間689-1
比嘉地域総合施設,24.7703158,125.3805503,沖縄県宮古島市城辺字比嘉59
加治道農村総合管理センター,24.75905705,125.3812144,沖縄県宮古島市城辺字比嘉936-1
福中集落センター,24.74839159,125.3941007,沖縄県宮古島市城辺字福里1196
福東集落センター,24.7398112,125.3977962,沖縄県宮古島市城辺字福里1403-1
福北集落センター,24.75954321,125.3987127,沖縄県宮古島市城辺字福里221
城辺総合公園,24.76451786,125.405946,沖縄県宮古島市城辺字福里245-3
福里公園,24.75348507,125.3949914,沖縄県宮古島市城辺字福里359-1
城辺陸上競技場,24.75580318,125.3898795,沖縄県宮古島市城辺字福里619-2
福南公民館（広場）,24.75036144,125.3871716,沖縄県宮古島市城辺字福里848-2
城辺小学校（グラウンド）,24.75307268,125.3934909,沖縄県宮古島市城辺字福里878
七又公民館,24.73368395,125.4109398,沖縄県宮古島市城辺字保良132
保良農村総合管理センター,24.73151867,125.4236024,沖縄県宮古島市城辺字保良424
吉野公民館,24.74464729,125.4321797,沖縄県宮古島市城辺字保良886-2
仲原地区農業活動拠点施設,24.73789284,125.3793484,沖縄県宮古島市城辺字友利1535
友利集落センター（広場）,24.73121794,125.3575805,沖縄県宮古島市城辺字友利54-2
南小学校（グラウンド）,24.79512965,125.2826048,沖縄県宮古島市平良字下里1068
平良第一小学校（グラウンド）,24.79796956,125.2844403,沖縄県宮古島市平良字下里1141
腰原公民館,24.79033961,125.2867541,沖縄県宮古島市平良字下里1309
地盛農村公園,24.77870419,125.3070095,沖縄県宮古島市平良字下里2118
地盛農村集会場,24.77839244,125.3073336,沖縄県宮古島市平良字下里2118
宮古島スポーツ観光交流拠点施設,24.77587939,125.3005683,沖縄県宮古島市平良字下里2511-35
県立宮古総合実業高等学校（グラウンド）,24.79945147,125.2741211,沖縄県宮古島市平良字下里288
鏡原小学校（グラウンド）,24.78201204,125.3101399,沖縄県宮古島市平良字下里3107-2
山中公民館,24.7736047,125.318602,沖縄県宮古島市平良字下里3107-243
七原コミュニティセンター,24.78007806,125.3115644,沖縄県宮古島市平良字下里3107-292
鏡原中学校（グラウンド）,24.78128962,125.3110398,沖縄県宮古島市平良字下里3107-3
カママ嶺公園,24.79655006,125.2772263,沖縄県宮古島市平良字下里407-1
成川公民館,24.83381951,125.2905775,沖縄県宮古島市平良字荷川取1251-8
荷川取公園,24.814277,125.284881,沖縄県宮古島市平良字荷川取149
荷川取公民館,24.81403987,125.2841635,沖縄県宮古島市平良字荷川取191
市立下崎地区公民館,24.83043606,125.282583,沖縄県宮古島市平良字荷川取486-1
市立久松地区公民館,24.7859542,125.2641839,沖縄県宮古島市平良字久貝223
久松中学校（グラウンド）,24.792554,125.269769,沖縄県宮古島市平良字久貝809-1
久松小学校（グラウンド）,24.79302862,125.2714867,沖縄県宮古島市平良字久貝933
狩俣小学校（グラウンド）,24.8944466,125.2758107,沖縄県宮古島市平良字狩俣1242
狩俣集落センター,24.895599,125.274629,沖縄県宮古島市平良字狩俣1255-1
狩俣中学校（グラウンド）,24.88688794,125.2806788,沖縄県宮古島市平良字狩俣4337
市立西原地区公民館,24.83145204,125.2989235,沖縄県宮古島市平良字西原1078-2
西辺小学校（グラウンド）,24.82992563,125.2984018,沖縄県宮古島市平良字西原1081
西辺中学校（グラウンド）,24.82855214,125.3000162,沖縄県宮古島市平良字西原1138
福山農村研修集会所,24.82039357,125.3175811,沖縄県宮古島市平良字西原2344-2
北中学校（グラウンド）,24.80776478,125.2891344,沖縄県宮古島市平良字西仲宗根500
富名腰コミュニティセンター,24.79408779,125.2916607,沖縄県宮古島市平良字西里1114-2
盛加農村公園,24.78637901,125.3103379,沖縄県宮古島市平良字西里1472-84
野原越公民館,24.77837794,125.3237831,沖縄県宮古島市平良字西里1859-4
北小学校（グラウンド）,24.80615143,125.2824341,沖縄県宮古島市平良字西里217
県立宮古高等学校（グラウンド）,24.79697442,125.2869802,沖縄県宮古島市平良字西里718-1
平良中学校（グラウンド）,24.79932862,125.2869449,沖縄県宮古島市平良字西里724
大浦農村研修集会所,24.84477014,125.3015089,沖縄県宮古島市平良字大浦433-1
大神島離島振興コミュニティセンター,24.91418179,125.3080964,沖縄県宮古島市平良字大神145
池間地区防災センター,24.92503696,125.245814,沖縄県宮古島市平良字池間110-2
旧宮島小学校（グラウンド）,24.87273571,125.2974073,沖縄県宮古島市平良字島尻1393
島尻農村研修集会所,24.8744226,125.2968675,沖縄県宮古島市平良字島尻1436
パーントゥの里会館,24.87635992,125.2955006,沖縄県宮古島市平良字島尻26
盛加越公園,24.80591205,125.2880195,沖縄県宮古島市平良字東仲宗根547
東小学校（グラウンド）,24.8054023,125.2978125,沖縄県宮古島市平良字東仲宗根698
県立宮古工業高等学校（グラウンド）,24.79902667,125.2990982,沖縄県宮古島市平良字東仲宗根968-4
大野越公園,24.80048465,125.3158181,沖縄県宮古島市平良字東仲宗根添1166
細竹公民館（広場）,24.78952259,125.3189202,沖縄県宮古島市平良字東仲宗根添1477-2
旧宮原小学校（グラウンド）,24.78237387,125.3343536,沖縄県宮古島市平良字東仲宗根添2928
とびとり会館,24.78455932,125.335116,沖縄県宮古島市平良字東仲宗根添2941-1
愛地構造改善センター,26.15817324,127.7449011,沖縄県南城市玉城字愛地373
奥武島グラウンド,26.13085163,127.7748591,沖縄県南城市玉城字奥武19-1
奥武公民館,26.13062743,127.7731019,沖縄県南城市玉城字奥武80
玉城小学校,26.14609966,127.7652873,沖縄県南城市玉城字屋嘉部3
屋嘉部公民館,26.14673795,127.765663,沖縄県南城市玉城字屋嘉部34
玉城幼稚園,26.14783369,127.7671621,沖縄県南城市玉城字屋嘉部76
垣花構造改善センター,26.14878931,127.793299,沖縄県南城市玉城字垣花137
玉城勤労者体育センター（喜良原体育館）,26.15283275,127.7758235,沖縄県南城市玉城字喜良原57
喜良原野球場,26.15235312,127.7764685,沖縄県南城市玉城字喜良原69
グスクロード公園,26.14396313,127.7746278,沖縄県南城市玉城字玉城1212
玉城公民館,26.13911,127.78301,沖縄県南城市玉城字玉城165-1
志堅原公民館,26.13331654,127.7685518,沖縄県南城市玉城字志堅原48-1
南城市構造改善センター,26.1508992,127.7608874,沖縄県南城市玉城字糸数168-16
糸数上原公園,26.15318024,127.7594857,沖縄県南城市玉城字糸数245-1
糸数公民館,26.15302105,127.7610652,沖縄県南城市玉城字糸数44
親慶原公民館,26.15637819,127.7812168,沖縄県南城市玉城字親慶原163
船越公民館,26.15319301,127.7544612,沖縄県南城市玉城字船越108
船越小学校,26.15315609,127.7517565,沖縄県南城市玉城字船越960
南城市前川観光交流・防災機能拠点施設,26.14539707,127.749353,沖縄県南城市玉城字前川180-1
中山公民館,26.1386925,127.776814,沖縄県南城市玉城字中山75
仲村渠児童館,26.14565045,127.7923081,沖縄県南城市玉城字仲村渠725
百名公民館,26.14135504,127.7911529,沖縄県南城市玉城字百名104-1
南城市ゲートボール場,26.135588,127.785619,沖縄県南城市玉城字百名1233
新原公民館,26.13471985,127.7903558,沖縄県南城市玉城字百名1422
百名小学校,26.14258464,127.7913766,沖縄県南城市玉城字百名54
玉城中学校,26.14504397,127.7659745,沖縄県南城市玉城字富里153
玉城野球場,26.14597602,127.7669674,沖縄県南城市玉城字富里186-1
玉城総合体育館,26.14612536,127.7694476,沖縄県南城市玉城字富里200
玉城陸上競技場,26.14492219,127.7699458,沖縄県南城市玉城字富里222
富里公民館,26.14287653,127.7696341,沖縄県南城市玉城字富里92
堀川公民館,26.13344419,127.7612795,沖縄県南城市玉城字堀川523
當山公民館,26.14146712,127.7658017,沖縄県南城市玉城字當山54
伊原公民館,26.17406325,127.8066801,沖縄県南城市佐敷字伊原287
伊原農村広場,26.17491538,127.8089707,沖縄県南城市佐敷字伊原409
屋比久公民館,26.17569949,127.8025562,沖縄県南城市佐敷字屋比久14
外間農村広場,26.17687498,127.7993906,沖縄県南城市佐敷字屋比久159-1
外間公民館,26.1772879,127.7980817,沖縄県南城市佐敷字屋比久189
屋比久児童公園,26.17600345,127.8022115,沖縄県南城市佐敷字屋比久67-1
佐敷中学校,26.17119282,127.7853106,沖縄県南城市佐敷字兼久16-1
兼久構造改善センター,26.17177035,127.7823748,沖縄県南城市佐敷字兼久37-1
つきしろの宮,26.1661564,127.7872732,沖縄県南城市佐敷字佐敷1151
佐敷小学校,26.16743392,127.7849944,沖縄県南城市佐敷字佐敷1193
佐敷幼稚園,26.16750283,127.7832217,沖縄県南城市佐敷字佐敷1246-2
つきしろ公民館,26.15984831,127.7924384,沖縄県南城市佐敷字佐敷1678-199
つきしろ児童公園,26.15957386,127.7918912,沖縄県南城市佐敷字佐敷1678-259
佐敷農村広場,26.16720288,127.7917142,沖縄県南城市佐敷字佐敷20-1
南城市文化センター,26.17018485,127.7875377,沖縄県南城市佐敷字佐敷307
佐敷公民館,26.16788623,127.7901267,沖縄県南城市佐敷字佐敷420
手登根農村広場,26.17120208,127.8012314,沖縄県南城市佐敷字手登根1-1
手登根公民館,26.17096291,127.8009141,沖縄県南城市佐敷字手登根52
小谷農村広場,26.17411873,127.7646004,沖縄県南城市佐敷字小谷1-1
小谷構造改善センター,26.17358358,127.7647495,沖縄県南城市佐敷字小谷46
第２団地自治会連絡事務所,26.17835054,127.7770965,沖縄県南城市佐敷字新開1-236
新開公園,26.17732543,127.7774842,沖縄県南城市佐敷字新開1-237
南城市佐敷農産物直売所,26.17391992,127.7775244,沖縄県南城市佐敷字新開1-240
老人福祉センター,26.17351859,127.7775548,沖縄県南城市佐敷字新開1-240
県営団地自治会連絡事務所,26.1753334,127.7787104,沖縄県南城市佐敷字新開1-315
南城市営新開球場,26.17449945,127.7763899,沖縄県南城市佐敷字新開1-417
南城市新開多目的広場,26.17410468,127.777967,沖縄県南城市佐敷字新開1-418
佐敷農村婦人の家,26.17359736,127.7779696,沖縄県南城市佐敷字新開1-419
新開公民館,26.17778127,127.7761903,沖縄県南城市佐敷字新開1-70
ひまわり児童館,26.17840831,127.7760075,沖縄県南城市佐敷字新開1-73
新里農村広場,26.1694125,127.7738204,沖縄県南城市佐敷字新里21-1
新里公民館,26.17039605,127.7726148,沖縄県南城市佐敷字新里677-2
仲伊保公民館,26.18112344,127.7946526,沖縄県南城市佐敷字仲伊保388-2
さしきスポレクセンター,26.17839146,127.7910758,沖縄県南城市佐敷字仲伊保390-2
冨祖崎公園,26.17797263,127.7913976,沖縄県南城市佐敷字仲伊保390-2
仲伊保団地集会場,26.17995089,127.7998222,沖縄県南城市佐敷字仲伊保488-1
津波古児童公園,26.18342714,127.7724188,沖縄県南城市佐敷字津波古1415-2
津波古公民館,26.18224709,127.7737199,沖縄県南城市佐敷字津波古144
馬天小学校,26.18110514,127.7684324,沖縄県南城市佐敷字津波古1800
馬天児童公園,26.18317936,127.7781387,沖縄県南城市佐敷字津波古374
冨祖崎公民館,26.17497604,127.7919521,沖縄県南城市佐敷字冨祖崎385-1
湧稲国農村集落総合管理施設,26.1606285,127.7360738,沖縄県南城市大里字稲嶺1095-1
大里南児童館,26.16966669,127.7428977,沖縄県南城市大里字稲嶺2101-89
大里グリーンタウン集会所,26.16835816,127.7441134,沖縄県南城市大里字稲嶺2127-231
大里第２グリーンタウン集会所,26.16815336,127.7456911,沖縄県南城市大里字稲嶺2234-164
目取真農村集落総合管理施設,26.16384706,127.7416055,沖縄県南城市大里字稲嶺2760
稲嶺構造改善センター,26.16702668,127.7385802,沖縄県南城市大里字稲嶺808
島袋コミュニティーセンター,26.18995674,127.7473133,沖縄県南城市大里字古堅1379
古堅農村集落総合管理施設,26.18758807,127.7508798,沖縄県南城市大里字古堅155-1
福原コミュニティーセンター,26.19032403,127.7422232,沖縄県南城市大里字古堅800-2
銭又コミュニティーセンター,26.1806886,127.7368684,沖縄県南城市大里字高平473
平川コミュニティーセンター,26.17472612,127.7387555,沖縄県南城市大里字高平704
高宮城公民館,26.17378847,127.7438831,沖縄県南城市大里字高平85
稲福高齢者健康センター,26.1698824,127.7566625,沖縄県南城市大里字大城1779
真境名公民館,26.17708498,127.7576242,沖縄県南城市大里字大城2249
大里第２団地集会所,26.17514925,127.7523164,沖縄県南城市大里字大城2525
大里中央児童館,26.17644427,127.7498769,沖縄県南城市大里字大城2555-1
大城集落センター,26.16426369,127.757133,沖縄県南城市大里字大城775
大里内原公園,26.19021628,127.7601077,沖縄県南城市大里字大里1071
南風原農村集落総合管理施設,26.18539892,127.7551697,沖縄県南城市大里字大里2010-1
高齢者能力活用センター,26.18298833,127.7507871,沖縄県南城市大里字大里2231-1
大里城址公園,26.18655051,127.762331,沖縄県南城市大里字大里386-1
西原公民館,26.1854149,127.7607513,沖縄県南城市大里字大里485
当間集落センター,26.1808094,127.7431337,沖縄県南城市大里字仲間108-2
農業団地センター,26.1740676,127.7470468,沖縄県南城市大里字仲間1155
大里南小学校,26.17303364,127.7487243,沖縄県南城市大里字仲間1375
南城市総合保健福祉センター,26.17553722,127.7451196,沖縄県南城市大里字仲間918
南城市大里農村環境改善センター,26.17646107,127.7455905,沖縄県南城市大里字仲間928
大里南幼稚園,26.17641293,127.746025,沖縄県南城市大里字仲間928
仲程農村集落総合管理施設,26.17688928,127.7463751,沖縄県南城市大里字仲間934-1
大里団地集会所,26.17925695,127.7449539,沖縄県南城市大里字仲間969
大里中学校,26.17942187,127.7459955,沖縄県南城市大里字仲間978
大里北幼稚園,26.19344351,127.7548976,沖縄県南城市大里字嶺井222
大里北小学校,26.19023171,127.7523246,沖縄県南城市大里字嶺井392
大里北児童館,26.19617752,127.7478281,沖縄県南城市大里字嶺井515-1
嶺井公民館,26.19558102,127.755216,沖縄県南城市大里字嶺井66
南城市安座真観光交流・防災機能拠点施設,26.17745546,127.8221876,沖縄県南城市知念字安座真151
知念漁民研修センター,26.19011298,127.8115683,沖縄県南城市知念字海野1-7
海野公民館,26.18830807,127.8111915,沖縄県南城市知念字海野244-2
吉富コミュニティ供用施設,26.16849209,127.8208749,沖縄県南城市知念字吉富106-2
久高島離島復興総合センター,26.15554296,127.8867392,沖縄県南城市知念字久高231-2
離島体験宿泊交流施設,26.15828723,127.8888476,沖縄県南城市知念字久高249-1
久高地区津波避難施設,26.15684783,127.8863413,沖縄県南城市知念字久高46
久高小中学校,26.15673588,127.8867383,沖縄県南城市知念字久高46
久手堅公民館,26.16993312,127.8231169,沖縄県南城市知念字久手堅103
南城市知念児童館,26.17001274,127.8211038,沖縄県南城市知念字久手堅22
南城市知念社会福祉センター,26.16870332,127.8265966,沖縄県南城市知念字久手堅453
岬公園,26.16749492,127.8297989,沖縄県南城市知念字久手堅523
知念体育館,26.16748755,127.8285576,沖縄県南城市知念字久手堅532
知念幼稚園,26.17151782,127.8210233,沖縄県南城市知念字久手堅679
知念小学校,26.17080723,127.8195709,沖縄県南城市知念字久手堅679
知念中学校,26.17278499,127.8191568,沖縄県南城市知念字久手堅700
具志堅公民館,26.15583842,127.8090956,沖縄県南城市知念字具志堅22
山里公民館,26.15664202,127.8060752,沖縄県南城市知念字山里22
志喜屋公民館,26.15137845,127.8003555,沖縄県南城市知念字志喜屋428
志喜屋漁港多目的広場,26.14993793,127.8081221,沖縄県南城市知念字志喜屋9-2
知念公民館,26.15973127,127.8160492,沖縄県南城市知念字知念536
知念農村広場,26.15960826,127.8152403,沖縄県南城市知念字知念915-1
守礼カントリークラブ,26.17931217,127.8116377,沖縄県南城市知念字知名1029
知名公民館,26.18451416,127.8180238,沖縄県南城市知念字知名107
安田小学校,26.74650603,128.3189435,沖縄県国頭村字安田279
安田公民館,26.74586168,128.3152849,沖縄県国頭村字安田853
安波公民館,26.716188,128.286391,沖縄県国頭村字安波110
やんばる学びの森,26.72288396,128.2657873,沖縄県国頭村字安波1301-7
安波小学校,26.71822076,128.2831366,沖縄県国頭村字安波601
伊地地区体育館,26.757026,128.190343,沖縄県国頭村字伊地152-3
宇嘉公民館,26.808396,128.234277,沖縄県国頭村字宇嘉2
宇良集会所,26.754377,128.188241,沖縄県国頭村字宇良47-2
奥集落センター,26.837891,128.28775,沖縄県国頭村字奥133
奥小学校,26.84115685,128.2892962,沖縄県国頭村字奥313
奥間小学校（体育館）,26.73283818,128.1720244,沖縄県国頭村字奥間1
観光物産センター（道の駅）,26.73201421,128.1692409,沖縄県国頭村字奥間1605
奥間公民館,26.73520023,128.1735522,沖縄県国頭村字奥間64
宜名真公民館,26.847061,128.254138,沖縄県国頭村字宜名真214
北国小学校,26.86058239,128.2486617,沖縄県国頭村字宜名真535
くにがみ鏡地パークゴルフ場,26.73011693,128.1613445,沖縄県国頭村字鏡地142-10
鏡地公民館,26.73069686,128.1629701,沖縄県国頭村字鏡地172-2
佐手公民館,26.785441,128.219533,沖縄県国頭村字佐手135
佐手小学校,26.78697509,128.2219921,沖縄県国頭村字佐手293
謝敷公民館,26.780657,128.214066,沖縄県国頭村字謝敷213
楚洲公民館,26.792658,128.315194,沖縄県国頭村字楚洲325
楚洲あさひの丘,26.79075305,128.3149779,沖縄県国頭村字楚洲517
桃原公民館,26.74046398,128.1649385,沖縄県国頭村字桃原49
半地公民館,26.726547,128.165714,沖縄県国頭村字半地248
比地コミュニティ施設,26.72617377,128.1759233,沖縄県国頭村字比地151-2
比地キャンプ場等施設,26.71908407,128.1791316,沖縄県国頭村字比地781-1
浜公民館,26.71870724,128.1588541,沖縄県国頭村字浜102
くにがみ屋内運動場,26.72411062,128.1612753,沖縄県国頭村字浜500
国頭陸上競技場（くいなエコスポレク公園）,26.72514518,128.1623772,沖縄県国頭村字浜502
辺戸公民館,26.85689048,128.2607585,沖縄県国頭村字辺戸51-3
国頭村森林公園,26.73263316,128.1893304,沖縄県国頭村字辺土名1094
村民ふれあいセンター,26.74607167,128.178233,沖縄県国頭村字辺土名112
上島公民館,26.74044285,128.1778137,沖縄県国頭村字辺土名1165
保健センター,26.74526973,128.1759208,沖縄県国頭村字辺土名1437
国頭中学校,26.74655602,128.1751205,沖縄県国頭村字辺土名1463
特別養護老人ホーム北斗園,26.740618,128.174633,沖縄県国頭村字辺土名1692
老人福祉センター,26.73965027,128.1741073,沖縄県国頭村字辺土名1709
辺土名小学校,26.74724629,128.17706,沖縄県国頭村字辺土名181
総合体育館,26.74677305,128.1735155,沖縄県国頭村字辺土名2142
辺土名公民館,26.74502727,128.1779498,沖縄県国頭村字辺土名791
辺野喜公民館,26.79655006,128.2356001,沖縄県国頭村字辺野喜47
旧佐手小学校辺野喜分校,26.79732351,128.2356279,沖縄県国頭村字辺野喜58
与那公民館,26.76406876,128.2049946,沖縄県国頭村字与那70
大宜味小学校、大宜味中学校,26.68255,128.102522,沖縄県大宜味村字塩屋1306-6
旧塩屋小学校,26.66991,128.10723,沖縄県大宜味村字塩屋538
押川公民館,26.672637,128.132319,沖縄県大宜味村字押川156
旧喜如嘉小学校,26.70704,128.152414,沖縄県大宜味村字喜如嘉2083
上原公民館,26.68717,128.113522,沖縄県大宜味村字上原193
旧大宜味小学校,26.702162,128.119246,沖縄県大宜味村字大宜味1
大宜味村役場,26.701778,128.120106,沖縄県大宜味村字大兼久157
道の駅　やんばるの森ビジターセンター,26.660974,128.101688,沖縄県大宜味村字津波95
大保ダム地域防災センター,26.64999859,128.1463358,沖縄県大宜味村字田港1357-18
大保ダム脇ダム横平場,26.64638612,128.1508096,沖縄県大宜味村字田港1357-18
江洲公民館,26.63727789,128.1209465,沖縄県大宜味村字白浜442
大保ダム脇ダム横平場,26.64638612,128.1508096,沖縄県大宜味村字田港1357-18
宮城区グラウンド,26.62509563,128.1844381,沖縄県東村字宮城184-1
イノーガマ農村公園,26.62909983,128.2062712,沖縄県東村字宮城454-1
魚泊農村公園,26.63199624,128.2180006,沖縄県東村字宮城599-1
ふれあいひるぎ公園,26.60426054,128.1448374,沖縄県東村字慶佐次54-1
高江小学校グラウンド,26.66215847,128.2527908,沖縄県東村字高江83-27
高江農村公園,26.6628721,128.2512012,沖縄県東村字高江98-1
川田農村公園,26.62968121,128.169179,沖縄県東村字川田1072-2
東小中学校グラウンド,26.63083593,128.1659445,沖縄県東村字川田746
宇出那覇農村公園,26.63712581,128.1446273,沖縄県東村字平良147
東村営グラウンド,26.63094103,128.1543628,沖縄県東村字平良550-2
東村村民の森（児童公園＋イベント広場）,26.63917984,128.1585427,沖縄県東村字平良861-51
有銘小学校グラウンド,26.60349168,128.1213646,沖縄県東村字有銘839-1
認定こども園みらい,26.688776,127.966713,沖縄県今帰仁村字越地180
今帰仁小学校（体育館）,26.688388,127.967573,沖縄県今帰仁村字越地207
旧今帰仁幼稚園,26.686958,127.966943,沖縄県今帰仁村字越地207
今帰仁村保健センター,26.68093,127.972668,沖縄県今帰仁村字玉城163-2
地域活動拠点活性化施設（玉城区）,26.678179,127.97234,沖縄県今帰仁村字玉城612
ロワジールテラス＆ヴィラズ古宇利,26.698978,128.016426,沖縄県今帰仁村字古宇利126
アマジャフバル農村公園,26.707283,128.01758,沖縄県今帰仁村字古宇利2427-2
古宇利オーシャンタワー,26.70043083,128.0245516,沖縄県今帰仁村字古宇利538
兼次小学校（体育館）,26.698222,127.93597,沖縄県今帰仁村字今泊3933
旧兼次幼稚園,26.698783,127.935836,沖縄県今帰仁村字今泊3933
村歴史文化センター,26.691781,127.92731,沖縄県今帰仁村字今泊5110
地域活動拠点活性化施設（上運天区）,26.68215,127.997441,沖縄県今帰仁村字上運天438
仲宗根地区公園,26.68189,127.9721,沖縄県今帰仁村字仲宗根118-2
今帰仁村役場,26.682782,127.972914,沖縄県今帰仁村字仲宗根219
今帰仁村コミュニティセンター,26.682019,127.972413,沖縄県今帰仁村字仲宗根230-2
村中央公民館,26.681444,127.97255,沖縄県今帰仁村字仲宗根232
今帰仁中学校（体育館）,26.686936,127.973693,沖縄県今帰仁村字仲宗根47
村総合運動公園（体育館等）,26.695055,127.977947,沖縄県今帰仁村字仲宗根851-1
天底小学校（体育館）,26.673868,127.983587,沖縄県今帰仁村字天底420
旧天底幼稚園,26.673136,127.982329,沖縄県今帰仁村字天底420
今帰仁保育所,26.681285,127.979867,沖縄県今帰仁村字天底91
伊豆味小中学校,26.65050762,127.9465032,沖縄県本部町字伊豆味13
伊豆味公民館（伊豆味構造改善センター）,26.65047768,127.9476191,沖縄県本部町字伊豆味95
石くびり公園,26.6596812,127.9106251,沖縄県本部町字伊野波472
伊野波公民館（伊野波コミュニティ供用施設）,26.6605309,127.9099766,沖縄県本部町字伊野波487
大嘉陽農村公園,26.65217817,127.9083882,沖縄県本部町字伊野波5
浦崎公民館（本部町立浦崎地区公民館）,26.67858344,127.8924388,沖縄県本部町字浦崎46
本部町民体育館,26.67591941,127.8950705,沖縄県本部町字浦崎467-1
本部町運動公園,26.6749032,127.8951993,沖縄県本部町字浦崎467-1
嘉津宇公民館（嘉津宇コミュニティ供用施設）,26.68768613,127.9082027,沖縄県本部町字嘉津宇11
具志堅公民館（本部町立具志堅地区公民館）,26.69862234,127.9131945,沖縄県本部町字具志堅158
健堅公民館,26.64718637,127.8809771,沖縄県本部町字健堅1061-1
本部小学校旧健堅分校,26.6490702,127.883286,沖縄県本部町字健堅145
古島公民館（古島集落センター）,26.6791689,127.898856,沖縄県本部町字古島2
崎本部小学校,26.62901713,127.8893175,沖縄県本部町字崎本部127
崎本部公民館,26.62977209,127.8877841,沖縄県本部町字崎本部15
海洋博前給油所,26.68048414,127.8861777,沖縄県本部町字山川147-1
豊川公民館,26.68863577,127.8840849,沖縄県本部町字山川716-1
山里公民館,26.66652317,127.9099376,沖縄県本部町字山里498
謝花公民館（本部町立謝花地区公民館）,26.6833245,127.8951321,沖縄県本部町字謝花124
新里公民館（新里コミュニティーセンター）,26.69961718,127.8937247,沖縄県本部町字新里593
瀬底集落センター,26.64925768,127.8674513,沖縄県本部町字瀬底1788-1
水納小中学校,26.64900155,127.8157233,沖縄県本部町字瀬底6260
瀬底小学校,26.64787956,127.8628993,沖縄県本部町字瀬底693
大堂公民館（大堂集落センター）,26.67876141,127.9192948,沖縄県本部町字大堂377
大浜公民館（大浜コミュニティ供用施設）,26.65476334,127.8843524,沖縄県本部町字大浜867-1
本部町立中央公民館,26.65571381,127.8842033,沖縄県本部町字大浜874-1
本部町地域福祉センター,26.65826182,127.8846548,沖縄県本部町字大浜881-4
大浜土地改良区,26.65330058,127.88944,沖縄県本部町字大浜地内
障害者支援施設　本部海陽園,26.6551512,127.8916555,沖縄県本部町字谷茶268
老人デイサービスセンター本部園,26.65618773,127.8910767,沖縄県本部町字谷茶310
谷茶公民館（本部町立谷茶地区公民館）,26.65830783,127.8881705,沖縄県本部町字谷茶445-13
渡久地公民館（渡久地コミュニティ供用施設）,26.65874951,127.894211,沖縄県本部町字渡久地123
本部中学校,26.66073008,127.8983017,沖縄県本部町字渡久地231-1
本部高等学校,26.66325334,127.8965034,沖縄県本部町字渡久地377
東公民館（本部町立東地区公民館）,26.65759613,127.9017043,沖縄県本部町字東430-1
本部町役場,26.65758144,127.8978231,沖縄県本部町字東5
本部小学校,26.66012628,127.9016233,沖縄県本部町字東605
ゆがふいんＢＩＳＥ,26.69605657,127.8807035,沖縄県本部町字備瀬1147-1
備瀬公民館（備瀬構造改善センター）,26.70278138,127.8808605,沖縄県本部町字備瀬457
備瀬南土地改良区,26.69831359,127.8848634,沖縄県本部町字備瀬地内
浜元公民館（本部町立浜元地区公民館）,26.67142767,127.8905288,沖縄県本部町字浜元121
マリンピアザオキナワ,26.67593257,127.8871379,沖縄県本部町字浜元410
並里公民館（並里コミュニティ供用施設）,26.65810418,127.9153232,沖縄県本部町字並里15-2
八重岳桜の森公園,26.65162294,127.9164047,沖縄県本部町字並里921
辺名地公民館,26.65317577,127.8939429,沖縄県本部町字辺名地51
上本部小学校,26.69237886,127.8999736,沖縄県本部町字北里1317
北里公民館,26.68893765,127.9026166,沖縄県本部町字北里153-1
上本部中学校,26.69434229,127.898216,沖縄県本部町字北里573
野原公民館,26.66793702,127.8982799,沖縄県本部町字野原1
宇加地公民館,26.423407,127.746269,沖縄県恩納村字3056-1
安富祖公民館,26.499113,127.887914,沖縄県恩納村字安富祖120
安富祖小学校,26.51255021,127.8986967,沖縄県恩納村字安富祖1868-1
恩納村役場,26.49737621,127.8536808,沖縄県恩納村字恩納2451
恩納公民館,26.49888107,127.851953,沖縄県恩納村字恩納2524
恩納小学校,26.48916329,127.8453039,沖縄県恩納村字恩納6069-1
恩納村総合保健福祉センター,26.48757279,127.8475862,沖縄県恩納村字恩納6302
うんな中学校,26.47568402,127.8406178,沖縄県恩納村字恩納7409-1
赤間総合運動公園,26.47159981,127.8421786,沖縄県恩納村字恩納7441
喜瀬武原公民館,26.4895641,127.9083483,沖縄県恩納村字喜瀬武原458-1
喜瀬武原小学校,26.48994328,127.9101877,沖縄県恩納村字喜瀬武原458-16
山田公民館,26.433044,127.77805,沖縄県恩納村字山田2698
山田小学校,26.43332532,127.7770123,沖縄県恩納村字山田997
塩屋公民館,26.43608,127.763593,沖縄県恩納村字真栄田1510
真栄田公民館,26.437794,127.77031,沖縄県恩納村字真栄田47
太田公民館,26.500855,127.860225,沖縄県恩納村字瀬良垣2517
瀬良垣公民館,26.50736,127.873929,沖縄県恩納村字瀬良垣299
前兼久公民館,26.449298,127.802614,沖縄県恩納村字前兼久116-1
谷茶公民館,26.466318,127.826647,沖縄県恩納村字谷茶1141-1
沖縄科学技術大学院大学,26.46177849,127.8310182,沖縄県恩納村字谷茶1919-4
仲泊小学校,26.4409908,127.8027849,沖縄県恩納村字仲泊433
冨着公民館,26.455124,127.809738,沖縄県恩納村字冨着879
名嘉真公民館,26.51520235,127.9205325,沖縄県恩納村字名嘉真1506
漢那児童公園,26.473958,127.958149,沖縄県宜野座村字漢那1773-1
漢那小学校（グラウンド）,26.47715958,127.9530318,沖縄県宜野座村字漢那1987-5
城原近隣公園,26.47541091,127.941491,沖縄県宜野座村字漢那2262-1
城原緑地公園,26.47354778,127.9414588,沖縄県宜野座村字漢那2276-1
漢那ヨリアゲの森緑地公園,26.476382,127.960568,沖縄県宜野座村字漢那976-1
宜野座小学校（グラウンド）,26.48030478,127.9746574,沖縄県宜野座村字宜野座1198
古島公園,26.48356613,127.9790288,沖縄県宜野座村字宜野座13
宜野座高校（グラウンド）,26.4834258,127.9760092,沖縄県宜野座村字宜野座157
宜野座ドーム,26.484186,127.974281,沖縄県宜野座村字宜野座181
宜野座村野球場,26.483753,127.973098,沖縄県宜野座村字宜野座188-1
村総合グラウント゛,26.48212645,127.9742277,沖縄県宜野座村字宜野座250
宜野座地区児童公園,26.47670185,127.9904082,沖縄県宜野座村字宜野座698-2
松田小学校（グラウンド）,26.48811279,127.990324,沖縄県宜野座村字松田2261
高松公園,26.49439263,127.9848587,沖縄県宜野座村字松田2629-121
松田地区農村公園,26.491105,127.993743,沖縄県宜野座村字松田413-1
並松公園,26.47860334,127.9706243,沖縄県宜野座村字惣慶1484
惣慶児童公園（公民館隣接）,26.47678348,127.9742667,沖縄県宜野座村字惣慶1588
農村公園,26.482537,127.972103,沖縄県宜野座村字惣慶1857
福山児童公園（公民館隣接）,26.48354236,127.9666858,沖縄県宜野座村字惣慶2046-83
宜野座中学校（グラウンド）,26.47818352,127.9684277,沖縄県宜野座村惣慶1505-1
伊芸ＳＡ上り線レストラン海側芝生地,26.45926,127.872026,沖縄県金武町字伊芸1261
第４２ゲート前（レンジ４入口）,26.459255,127.886649,沖縄県金武町字伊芸1529-7
ユイニー高台,26.461595,127.881914,沖縄県金武町字伊芸339-7
伊芸地区運動場,26.459531,127.878424,沖縄県金武町字伊芸778-1
伊芸地区公民館,26.458959,127.878746,沖縄県金武町字伊芸778-1
伊芸地区公園（さくまつ公園）,26.458388,127.878155,沖縄県金武町字伊芸907-1
沖縄自動車道「杣山第二橋」北側,26.460269,127.85921,沖縄県金武町字屋嘉1851-18
屋嘉浄水場,26.452458,127.846353,沖縄県金武町字屋嘉2018
大前鉢物生産組合,26.461058,127.85131,沖縄県金武町字屋嘉2018-582
屋嘉地区運動場,26.45256,127.849379,沖縄県金武町字屋嘉2026
屋嘉区１２班高台（町道屋嘉６２号線）,26.439507,127.841696,沖縄県金武町字屋嘉2935-81
小浜原高台（土地改良区入口）,26.443193,127.842388,沖縄県金武町字屋嘉2994-11
屋嘉地区公民館,26.451652,127.85035,沖縄県金武町字屋嘉360-1
屋嘉西児童公園,26.454751,127.851208,沖縄県金武町字屋嘉599-1
中川小学校グラウンド,26.470767,127.937814,沖縄県金武町字金武10154
ふれあいの森公園,26.46834,127.940614,沖縄県金武町字金武10366-1
中川近隣公園,26.469791,127.93831,沖縄県金武町字金武10531
中川地区公民館,26.469936,127.938834,沖縄県金武町字金武10543-1
並里区民広場（パーパー森）,26.45226132,127.9346676,沖縄県金武町字金武12421-1
金武公会堂前広場,26.455012,127.92383,沖縄県金武町字金武138
金武町総合保健福祉センター,26.44881,127.927657,沖縄県金武町字金武1842
上ヌ毛公園,26.454885,127.922728,沖縄県金武町字金武226-2
金武中学校グラウンド,26.449047,127.925052,沖縄県金武町字金武3504
スポーツ広場,26.451846,127.917915,沖縄県金武町字金武4118-1
町営住宅浜田団地,26.450536,127.91483,沖縄県金武町字金武4208-1
浜田原公園,26.45094,127.91375,沖縄県金武町字金武4234-11
金武アクティブパーク,26.45341942,127.9160068,沖縄県金武町字金武4263-2
金武児童公園,26.452697,127.924221,沖縄県金武町字金武438
仲畑慶原公園,26.45835442,127.9252002,沖縄県金武町字金武5312
金武小学校グラウンド,26.452537,127.926372,沖縄県金武町字金武549
オランダ森緑地公園,26.456965,127.92848,沖縄県金武町字金武5547
芳魂の塔,26.457303,127.928893,沖縄県金武町字金武5548-1
大川児童公園,26.453848,127.928296,沖縄県金武町字金武565
並里地区公民館　（ウフマシチャ）,26.454514,127.92816,沖縄県金武町字金武714-2
金武町陸上競技場,26.453835,127.912609,沖縄県金武町字金武7758
金武地区公園,26.454359,127.910956,沖縄県金武町字金武7801
２３班高台（町道金武２０４号線）,26.452015,127.905379,沖縄県金武町字金武8107-4
石川原高台（町道金武２２４号線）,26.451275,127.901206,沖縄県金武町字金武8235-34
モーシヌ森公園,26.452829,127.931296,沖縄県金武町字金武856
喜瀬武原地区農民集会所,26.482383,127.912802,沖縄県金武町字金武8909
金武町役場公用車駐車場,26.45647543,127.9252945,沖縄県金武町字金武99
金武ダム公園,26.46708125,127.9323115,沖縄県金武町字金武9959
金武ダムホール,26.467715,127.933834,沖縄県金武町字金武9959
第４６ゲート前,26.454419,127.90524,沖縄県金武町渡慶頭原地内
第４７ゲート前,26.452298,127.906803,沖縄県金武町渡慶頭原地内
風水ふれあい広場,26.395329,127.751083,沖縄県読谷村字喜名2272-1
観音堂公園,26.40019914,127.7555495,沖縄県読谷村字喜名448-1
宇座東公園,26.4116962,127.7353466,沖縄県読谷村字高志保1601
セーラの森公園,26.39505179,127.7288542,沖縄県読谷村字座喜味1975
読谷村運動広場・読谷平和の森球場・読谷村陸上競技場,26.39857492,127.7436437,沖縄県読谷村字座喜味2976
楚辺東公園,26.38573067,127.736956,沖縄県読谷村字楚辺1272-5
有限会社カデナ自動車学校,26.38570774,127.7348595,沖縄県読谷村字楚辺1512
長浜地区運動広場,26.41988397,127.7363131,沖縄県読谷村字長浜364
井之原公園,26.40330449,127.7325756,沖縄県読谷村字波平424-2
屋良小学校グラウンド・体育館,26.36528311,127.7648481,沖縄県嘉手納町屋良1-31-1
屋良ふれあいパーク,26.36499864,127.7619679,沖縄県嘉手納町屋良1-5
屋良城跡公園,26.36768113,127.7623192,沖縄県嘉手納町字屋良656
嘉手納高等学校グラウンド・体育館,26.36839997,127.7655513,沖縄県嘉手納町字屋良806
嘉手納運動公園陸上競技場・スポーツドーム等,26.36996411,127.772002,沖縄県嘉手納町字屋良875
屋良第２児童公園,26.36601971,127.7693366,沖縄県嘉手納町字屋良936-2
あしびなぁ,26.36669622,127.760376,沖縄県嘉手納町字嘉手納162-1
ちびっこ広場,26.36411358,127.7576891,沖縄県嘉手納町字嘉手納22-6
ロータリー広場,26.36329911,127.7559014,沖縄県嘉手納町字嘉手納290-10
嘉手納小学校グラウンド・体育館,26.36543211,127.7528211,沖縄県嘉手納町字嘉手納312
嘉手納中学校グラウンド・体育館,26.36466308,127.7533361,沖縄県嘉手納町字嘉手納312
野國總管公園,26.36636459,127.753193,沖縄県嘉手納町字嘉手納322
嘉手納児童公園,26.36368741,127.7505859,沖縄県嘉手納町字嘉手納420
兼久海浜公園,26.35299699,127.7418211,沖縄県嘉手納町字兼久85-31
イユミーバンタ,26.36171162,127.7421805,沖縄県嘉手納町字水釜
西区コミュニティーセンター,26.3601695,127.7496594,沖縄県嘉手納町字水釜121
町営水釜高層住宅１０階建て,26.36003251,127.7412242,沖縄県嘉手納町字水釜379-3
嘉手納町マルチメディアセンター,26.36165672,127.7409584,沖縄県嘉手納町字水釜412
水釜児童公園,26.35653765,127.7423448,沖縄県嘉手納町字水釜6-5-1
北谷小学校グラウンド,26.32627906,127.7782495,沖縄県沖縄市南桃原4-13-1
ナガサ公園,26.32395732,127.7575104,沖縄県北谷町字伊平160
奈留川西公園,26.32151954,127.7610469,沖縄県北谷町字伊平329-1
謝苅公園,26.31714598,127.7722136,沖縄県北谷町字吉原110-1
宇地原公園,26.31412144,127.7678041,沖縄県北谷町字吉原1133-1
北谷中学校グラウンド,26.32054925,127.7795812,沖縄県北谷町字吉原480
桃原公園,26.3223089,127.7770808,沖縄県北谷町字吉原554-1
北玉小学校グラウンド,26.31331992,127.7733748,沖縄県北谷町字吉原875
北玉公園,26.31210854,127.7718419,沖縄県北谷町字吉原910-1
宮城公園,26.32763691,127.7480253,沖縄県北谷町字宮城1-171
浜川小学校グラウンド,26.32623297,127.7485993,沖縄県北谷町字宮城1-172
宮城北公園,26.33241494,127.7437118,沖縄県北谷町字宮城3-142
桑江公園,26.32489801,127.767437,沖縄県北谷町字桑江440
上勢桑江公園,26.3253866,127.7736894,沖縄県北谷町字桑江555-1
北谷第二小学校グラウンド,26.32526914,127.7727262,沖縄県北谷町字桑江567-1
桑江総合運動場,26.32391892,127.7694905,沖縄県北谷町字桑江595-2
港公園,26.32178853,127.7516493,沖縄県北谷町字港17
砂辺馬場公園,26.33385883,127.7450057,沖縄県北谷町字砂辺1-4
砂辺第一公園,26.33186829,127.7504645,沖縄県北谷町字砂辺311-4
上勢頭南公園,26.32839903,127.7741009,沖縄県北谷町字上勢頭622-2
上勢頭北公園,26.33052799,127.7717526,沖縄県北谷町字上勢頭709
あしびなぁ公園,26.32786538,127.7685951,沖縄県北谷町字上勢頭830-1
桃原東公園,26.32155975,127.7799604,沖縄県北谷町字桃原10-3
桃原西公園,26.3204104,127.7778205,沖縄県北谷町字桃原2-1
北谷公園,26.31284342,127.7574849,沖縄県北谷町字美浜2
美浜第一公園,26.31081681,127.7617409,沖縄県北谷町美浜1-2-9
桑江中学校グラウンド,26.31113477,127.7605251,沖縄県北谷町美浜1-4-7
美浜第二公園,26.31563559,127.7595417,沖縄県北谷町美浜2-4-1
美浜第三公園,26.31871007,127.7586944,沖縄県北谷町美浜2-7-1
美浜第四公園,26.32104987,127.7576343,沖縄県北谷町美浜3-2-3
美浜第五公園,26.32367179,127.7554759,沖縄県北谷町美浜3-5-1
北前第三公園,26.29754857,127.7600193,沖縄県北谷町北前1-14-1
北前第二公園,26.30024847,127.7594256,沖縄県北谷町北前1-5-5
安良波公園,26.3024101,127.7589141,沖縄県北谷町北谷2-21
北前第一公園,26.30526968,127.7609536,沖縄県北谷町北谷2-4-4
沖縄県総合運動公園,26.30522159,127.8265224,沖縄県沖縄市比屋根5-3-1
イオンモール沖縄ライカム駐車場,26.3136309,127.7967362,沖縄県北中城村字ライカム1
若松公園,26.29772236,127.7890473,沖縄県北中城村字安谷屋131
イームイ公園,26.29503678,127.7875228,沖縄県北中城村字安谷屋223
農村広場,26.29065563,127.7961454,沖縄県北中城村字荻道185
屋宜原公園,26.3111056,127.7920269,沖縄県北中城村字屋宜原794
北中城小学校,26.30143019,127.7946181,沖縄県北中城村字喜舎場1
喜舎場児童公園,26.30462953,127.7950295,沖縄県北中城村字喜舎場192
喜舎場保育所,26.30251113,127.7966952,沖縄県北中城村字喜舎場240
北中城村中央広場,26.30236199,127.7957116,沖縄県北中城村字喜舎場253
北中城幼稚園,26.30205333,127.7963471,沖縄県北中城村字喜舎場255-1
北中城中学校,26.29861335,127.7960878,沖縄県北中城村字喜舎場306
兄弟広場,26.29157443,127.7994445,沖縄県北中城村字大城140-1
大城広場,26.29031522,127.7990472,沖縄県北中城村字大城70
北中城中央公民館,26.30424224,127.8013346,沖縄県北中城村字仲順435
仲順児童館,26.30186919,127.7987398,沖縄県北中城村字仲順60
仲順公園,26.30285741,127.7996977,沖縄県北中城村字仲順85
渡口みどり公園,26.30489126,127.808229,沖縄県北中城村字渡口362
渡口多目的広場,26.30210331,127.8137345,沖縄県北中城村字渡口457-1
島袋中央公園,26.31966836,127.7993047,沖縄県北中城村字島袋100
島袋小学校,26.32136282,127.8055222,沖縄県北中城村字島袋1234
島袋児童館,26.31862097,127.7998441,沖縄県北中城村字島袋215
ロカイ公園,26.31939626,127.8011034,沖縄県北中城村字島袋261
あおい公園,26.32192541,127.802128,沖縄県北中城村字島袋600-9
ゆうな公園,26.32249758,127.8006474,沖縄県北中城村字島袋606
しおさい公苑,26.29694141,127.8118349,沖縄県北中城村字熱田2070-16
熱田緑地公園,26.29536358,127.8121817,沖縄県北中城村字熱田2070-4
熱田公園,26.2971284,127.8046406,沖縄県北中城村字熱田304
北中城村老人デイサービスセンターしおさい,26.30375784,127.8219533,沖縄県北中城村字美崎262
美崎広場,26.30401646,127.8214801,沖縄県北中城村字美崎265
翁長児童公園,26.234677,127.751459,沖縄県西原町字翁長445
西原運動公園,26.235207,127.754731,沖縄県西原町字翁長956
我謝児童公園,26.216502,127.757269,沖縄県西原町字我謝474
掛保久後間毛,26.22821,127.77032,沖縄県西原町字掛保久1-1
幸地児童公園,26.23244,127.744389,沖縄県西原町字幸地53
西原台団地公園,26.235211,127.759736,沖縄県西原町字小橋川286
小那覇児童公園,26.225886,127.770293,沖縄県西原町字小那覇395-4
小波津児童公園,26.22398,127.751749,沖縄県西原町字小波津220
棚原児童公園,26.242434,127.752966,沖縄県西原町字棚原151
津花波児童公園,26.228181,127.761662,沖縄県西原町字津花波182
東崎都市緑地,26.214067,127.772888,沖縄県西原町字東崎15-1
東崎公園,26.216209,127.774094,沖縄県西原町字東崎5-1
桃原児童公園,26.220477,127.750273,沖縄県西原町字桃原59
内間児童公園,26.229986,127.767921,沖縄県西原町字内間63
九区児童公園,26.22079,127.7637,沖縄県西原町字与那城286-2
与那城児童公園,26.218196,127.760739,沖縄県西原町字与那城383
上原高台公園,26.240995,127.762703,沖縄県西原町上原1-20-4
上原南公園,26.23959,127.759248,沖縄県西原町上原1-5-16
上原西公園,26.244647,127.762976,沖縄県西原町上原2-21-7
上原東公園,26.242467,127.765095,沖縄県西原町上原2-4
白河公園,26.243579,127.754436,沖縄県西原町棚原1-14-14
第一修道院,26.20052925,127.7530868,沖縄県与那原町字上与那原323-1
上与那原公民館,26.19861811,127.7536718,沖縄県与那原町字上与那原84-2
東浜野球場,26.20760849,127.7595922,沖縄県与那原町字東浜25
与那古浜公園,26.20416237,127.7627894,沖縄県与那原町字東浜77
板良敷区公民館,26.19527278,127.7672992,沖縄県与那原町字板良敷353
与那原東小学校,26.19938524,127.7682752,沖縄県与那原町字板良敷50
町高齢者能力活用センター,26.18934006,127.7724747,沖縄県与那原町字板良敷751
港地区コミュニティセンター,26.20204781,127.7601351,沖縄県与那原町字与那原120
大見武集落センター,26.20530973,127.7479486,沖縄県与那原町字与那原2720-7
愛隣園体育館,26.20222128,127.7512993,沖縄県与那原町字与那原2943
浜田地区公民館,26.20296083,127.7533036,沖縄県与那原町字与那原2998-90
与那原町交流センターひざし,26.20005727,127.7552768,沖縄県与那原町字与那原3090-2
与那原カトリック教会,26.20031304,127.7536663,沖縄県与那原町字与那原3090-4
森下区事務所,26.20046476,127.7551379,沖縄県与那原町字与那原3090-7
与那原町商工会館,26.19987297,127.7555894,沖縄県与那原町字与那原3090-8
上の森公園,26.1993735,127.7566226,沖縄県与那原町字与那原3179
与那原町観光交流施設,26.19896919,127.7561183,沖縄県与那原町字与那原3179
町営阿知利団地（集会場）,26.19769706,127.7572148,沖縄県与那原町字与那原3209
与那原町大綱曳倉庫・作業場,26.19705491,127.75722,沖縄県与那原町字与那原3274-1
江口公民館,26.19898785,127.7631986,沖縄県与那原町字与那原3691-79
町営江口団地（だんらん）,26.19869342,127.7637004,沖縄県与那原町字与那原3857-1
町営江口団地（広間）,26.19860197,127.7636736,沖縄県与那原町字与那原3857-1
中島区事務所,26.20188265,127.7581051,沖縄県与那原町字与那原450-2
与那原中学校,26.20145132,127.7624117,沖縄県与那原町字与那原57
与那原町コミュニティセンター,26.20365386,127.7554027,沖縄県与那原町字与那原712
与那原小学校,26.20460478,127.7548579,沖縄県与那原町字与那原735
与原近隣公園,26.20793577,127.7539595,沖縄県与那原町字与那原897
あかぎ児童館,26.20662654,127.7556482,沖縄県与那原町字与那原912
与原区公民館,26.20669874,127.7556858,沖縄県与那原町字与那原912
喜屋武集落センター,26.185856,127.729615,沖縄県南風原町字喜屋武139
南風原町立中央公民館,26.188109,127.73094,沖縄県南風原町字喜屋武236
翔南小学校,26.183805,127.728869,沖縄県南風原町字喜屋武450
宮城構造改善センター,26.204171,127.742927,沖縄県南風原町字宮城218
宮城公園,26.205726,127.739813,沖縄県南風原町字宮城242-3
宮平ハイツ集会所,26.190241,127.738182,沖縄県南風原町字宮平1028-35
ウガンヌ前公園,26.198198,127.737128,沖縄県南風原町字宮平161
北丘小学校,26.202385,127.732587,沖縄県南風原町字宮平336
北丘ハイツ集会所,26.204267,127.731316,沖縄県南風原町字宮平381-59
北丘運動公園,26.204893,127.732967,沖縄県南風原町字宮平386-38
北丘児童館,26.200128,127.733607,沖縄県南風原町字宮平489-1
総合保健福祉防災センター,26.191832,127.732948,沖縄県南風原町字宮平697-10
黄金森公園陸上競技場,26.190596,127.733383,沖縄県南風原町字宮平718-1
宮平地域振興資料館,26.195459,127.735677,沖縄県南風原町字宮平785-1
兼城公園,26.194159,127.729956,沖縄県南風原町字兼城170
沖縄県立沖縄盲学校,26.197025,127.721233,沖縄県南風原町字兼城473
第二団地集会所,26.194689,127.718766,沖縄県南風原町字兼城519
南風原小学校,26.191999,127.729568,沖縄県南風原町字兼城685
南風原町役場,26.191034,127.728668,沖縄県南風原町字兼城686
町民広場,26.190569,127.72891,沖縄県南風原町字兼城689
第一団地集会所,26.190187,127.728966,沖縄県南風原町字兼城709
南風原中学校,26.192451,127.731996,沖縄県南風原町字兼城780
兼城児童館,26.193798,127.728684,沖縄県南風原町字兼城84
兼城公民館,26.193673,127.728652,沖縄県南風原町字兼城84
山川集落センター,26.177123,127.722754,沖縄県南風原町字山川202
照屋農村コミュニティーセンター,26.185273,127.72531,沖縄県南風原町字照屋134
南星中学校,26.187146,127.723092,沖縄県南風原町字照屋200
新川コミュニティーセンター,26.202188,127.726112,沖縄県南風原町字新川148-12
東新川災害時避難施設,26.213231,127.729384,沖縄県南風原町字新川584
神里構造改善センター,26.172713,127.731573,沖縄県南風原町字神里120-1
神里ふれあい公園,26.174957,127.731369,沖縄県南風原町字神里712-1
大名公民館,26.207227,127.737056,沖縄県南風原町字大名148
津嘉山公園,26.190642,127.717271,沖縄県南風原町字津嘉山1265-2
津嘉山児童館,26.185846,127.715877,沖縄県南風原町字津嘉山663-1
津嘉山小学校,26.184566,127.717835,沖縄県南風原町字津嘉山684
津嘉山地域振興資料館,26.185586,127.716681,沖縄県南風原町字津嘉山690
本部児童館,26.188994,127.724519,沖縄県南風原町字本部116
本部公民館,26.1891,127.724674,沖縄県南風原町字本部117
本部公園,26.189919,127.723505,沖縄県南風原町字本部352
兼本ハイツ集会所,26.191724,127.724449,沖縄県南風原町字本部434-52
与那覇コミュニティーセンター,26.201201,127.746194,沖縄県南風原町字与那覇59
西地区農村集落総合管理施設,26.58354453,127.2230744,沖縄県粟国村字西165
ビジターセンター,26.58211359,127.2333999,沖縄県粟国村字東1142
粟国小中学校グラウンド,26.58238357,127.2318774,沖縄県粟国村字東1323
東ふれあいセンター,26.58513003,127.2287044,沖縄県粟国村字東1981
渡名喜村防災支援センター,26.37530763,127.1451106,沖縄県渡名喜村字サウジ445
下阿嘉公民館,26.36518857,126.7985208,沖縄県久米島町阿嘉156-12
上阿嘉公民館,26.3684124,126.786423,沖縄県久米島町阿嘉2245-55
宇江城公民館,26.38229189,126.7738439,沖縄県久米島町宇江城1173
赤平頂上付近,26.34511476,126.8143114,沖縄県久米島町宇根1987-2
マチョー原付近,26.34778756,126.8119939,沖縄県久米島町宇根2000
涙石付近,26.34682613,126.8179806,沖縄県久米島町宇根891
博物館付近,26.34169982,126.7638308,沖縄県久米島町嘉手苅542
日の出御願一本松付近,26.34098833,126.7779446,沖縄県久米島町儀間1878-12
具志川公民館,26.37321238,126.7455982,沖縄県久米島町具志川647
バイパス喜久里宅付近,26.34427717,126.7553057,沖縄県久米島町兼城985
山城集会場,26.33448783,126.7863019,沖縄県久米島町山城48
大岳小学校グランド,26.35888699,126.7493669,沖縄県久米島町山里177
山里公民館,26.36092862,126.7475738,沖縄県久米島町山里244
カラヤ原付近,26.34282648,126.8103417,沖縄県久米島町謝名堂1639-3
上江洲公民館,26.35673329,126.7473606,沖縄県久米島町上江洲229
久間地公民館,26.35728668,126.7440799,沖縄県久米島町上江洲457-40
カニク原付近,26.32786504,126.7943128,沖縄県久米島町真我里747-3
西アケタ原付近,26.35612104,126.8058689,沖縄県久米島町真謝1994-1
登武那覇公園,26.34913175,126.8009765,沖縄県久米島町真謝3371-1
久米島西中学校グランド,26.35080059,126.7468877,沖縄県久米島町西銘1324
銭田森林公園,26.32015138,126.8050627,沖縄県久米島町銭田1141-3
西銭田原付近,26.32519178,126.7948064,沖縄県久米島町銭田687-2
大田タンク付近,26.35014191,126.7615284,沖縄県久米島町太田199
大原三叉路付近,26.36273508,126.7249656,沖縄県久米島町大原386-2
車検場付近,26.35914905,126.7304351,沖縄県久米島町大原492-1
仲地公民館,26.3646921,126.7471256,沖縄県久米島町仲地15
中華海鮮海皇付近,26.34760377,126.7521514,沖縄県久米島町仲泊1119-2
旧久米島保育所付近,26.35102875,126.750192,沖縄県久米島町仲泊1155
具志川農村環境改善センター,26.34981995,126.7473813,沖縄県久米島町仲泊730
タカマス原付近,26.30612135,126.7989906,沖縄県久米島町島尻859
比屋定小学校グランド,26.38052233,126.7768388,沖縄県久米島町比屋定2220
比屋定公民館,26.38115669,126.7793922,沖縄県久米島町比屋定99
比嘉神屋付近,26.34142273,126.7921885,沖縄県久米島町比嘉1669
北原農村振興集落センター,26.36574745,126.7237172,沖縄県久米島町北原416
屋宜原中央公園,26.16209891,127.726292,沖縄県八重瀬町字屋宜原４５街区
八重瀬町中央公民館具志頭分館,26.11955903,127.7443657,沖縄県八重瀬町字具志頭1
具志頭社会体育館,26.11950364,127.7435342,沖縄県八重瀬町字具志頭1
具志頭運動公園,26.13105134,127.7448899,沖縄県八重瀬町字具志頭1300
具志頭小学校,26.12221027,127.7425614,沖縄県八重瀬町字具志頭666
具志頭中学校,26.12406674,127.7410104,沖縄県八重瀬町字具志頭690
向陽高等学校広場,26.12715972,127.7548975,沖縄県八重瀬町字港川150
白川小学校,26.16223097,127.7097037,沖縄県八重瀬町字小城551
新城小学校,26.13587718,127.7354961,沖縄県八重瀬町字新城1381
八重瀬町中央公民館,26.15067442,127.7143423,沖縄県八重瀬町字東風平1014
東風平運動公園,26.15366026,127.7146604,沖縄県八重瀬町字東風平1076
八重瀬町社会福祉会館,26.15623572,127.7259568,沖縄県八重瀬町字東風平1318-1
八重瀬町保健センター,26.15652462,127.7258066,沖縄県八重瀬町字東風平1318-3
東風平中学校,26.15116921,127.7242807,沖縄県八重瀬町字東風平267
東風平小学校,26.15340316,127.7231072,沖縄県八重瀬町字東風平304
西部プラザ公園,26.15198663,127.7042826,沖縄県八重瀬町字当銘282
南部工業高等学校運動場,26.13681862,127.726221,沖縄県八重瀬町字富盛1338
八重瀬公園,26.13068325,127.7199081,沖縄県八重瀬町字富盛1607
南部商業高等学校運動場,26.17029151,127.7227725,沖縄県八重瀬町字友寄850
多良間村地域振興拠点施設屋上,24.67108213,124.7061613,沖縄県多良間村字塩川445-1
水納島津波避難施設,24.74921309,124.6994916,沖縄県多良間村字水納1
八重山遠見台,24.67167,124.696464,沖縄県多良間村仲筋1098-1
多良間浄水場,24.6724866,124.7007888,沖縄県多良間村仲筋557
父母の森,24.67099494,124.6991902,沖縄県多良間村仲筋703
多良間村コミュニティー施設屋上,24.66971924,124.7016993,沖縄県多良間村仲筋89